{"type":"FeatureCollection","features":[{"type":"Feature","properties":{},"geometry":{"type":"MultiPolygon","coordinates":[[[[-156.660647791355,20.8521855337167],[-156.660647981174,20.8521853105577],[-156.660653039853,20.852189726818],[-156.660647791355,20.8521855337167]]],[[[-156.683492246422,20.8951677087116],[-156.683857876674,20.8951235620562],[-156.683869773954,20.8955459167621],[-156.683480483738,20.8955594335446],[-156.683492246422,20.8951677087116]]],[[[-156.660647791355,20.8521855337167],[-156.660529636569,20.8523241540155],[-156.660449541045,20.8524114036924],[-156.660373398504,20.8522876720105],[-156.659045659351,20.8511931193958],[-156.658498383128,20.8516594936634],[-156.657894000159,20.8522400821876],[-156.657698884504,20.8526541090089],[-156.657841652075,20.8529729564559],[-156.658469829455,20.8526445904657],[-156.658921927803,20.8527588049274],[-156.659335953438,20.8525922426665],[-156.660021238333,20.8529206083199],[-156.660529636569,20.8523241540155],[-156.660653039853,20.852189726818],[-156.660958745905,20.8524566130461],[-156.660680349122,20.8525565506179],[-156.660530442699,20.8527064570871],[-156.66053996125,20.8529705771414],[-156.66089212093,20.853353670027],[-156.660980161289,20.8534083977639],[-156.661521488409,20.8538158800807],[-156.661626184571,20.8539229562364],[-156.661785608315,20.8539015406341],[-156.661897443066,20.8538610902015],[-156.661902201812,20.8537373581901],[-156.661906960729,20.853604108401],[-156.66125023023,20.8529235822834],[-156.661090805632,20.8527308466266],[-156.66106225258,20.8525666630774],[-156.661105082458,20.8525738016085],[-156.66150007311,20.8529854486442],[-156.662230568109,20.8538230190098],[-156.662701701544,20.854441678987],[-156.663489302631,20.8554600880686],[-156.663786735,20.8558360425481],[-156.664541024193,20.8568711078547],[-156.66542856342,20.8581346015653],[-156.665944906625,20.8588627173436],[-156.667079909001,20.8602784964793],[-156.667781849975,20.8612754906938],[-156.668736013467,20.8625461226841],[-156.669133384002,20.8632028533143],[-156.669499820622,20.8638310310149],[-156.669861054912,20.8643355195425],[-156.670845556749,20.8665335471297],[-156.670794993327,20.8665632902974],[-156.670441047885,20.8659208355077],[-156.669968130404,20.8661260641198],[-156.669753978913,20.8662361142831],[-156.669486289805,20.8663848306481],[-156.669251317695,20.8665960070918],[-156.669179933755,20.866869645537],[-156.669218600281,20.8671016428809],[-156.669200753952,20.8671938469861],[-156.669057987056,20.867155181114],[-156.66859696593,20.8665722129262],[-156.668332251534,20.8666287247037],[-156.668061587706,20.8667209288553],[-156.668046715659,20.8670064640802],[-156.668058612923,20.867291999447],[-156.667924768011,20.8676637904751],[-156.667909896326,20.868044504492],[-156.667853384692,20.868404397844],[-156.667488731851,20.868554304176],[-156.667560116335,20.8686661383148],[-156.667707642771,20.8688231827351],[-156.66800745424,20.8690849232578],[-156.668283472442,20.8692395888245],[-156.668687980745,20.8693657002927],[-156.669223359617,20.8694347041922],[-156.669906264279,20.869377597245],[-156.670372638486,20.8693894942468],[-156.670574893222,20.8694156689172],[-156.670739075802,20.8695846102887],[-156.671264936431,20.8704198010702],[-156.671433878542,20.8703412786224],[-156.671555230897,20.8705363944062],[-156.67175272582,20.8707196128316],[-156.672207202728,20.8706268142902],[-156.672461805335,20.8712787868977],[-156.672959112366,20.8723757176954],[-156.673125674658,20.8724827939662],[-156.673527804376,20.8734869265215],[-156.674151222359,20.8745338890299],[-156.674607127792,20.8751493766654],[-156.675404247213,20.875953633754],[-156.676445260823,20.8770184429919],[-156.676195417784,20.8771998766171],[-156.676415517594,20.877473514784],[-156.676692130433,20.8778066395621],[-156.677123406985,20.8773977686591],[-156.677441659698,20.8777695592089],[-156.679479073961,20.879961637282],[-156.680014452306,20.8803007106602],[-156.68055577918,20.8808807045174],[-156.680817520175,20.8811305475625],[-156.681008654697,20.881372343741],[-156.681599767726,20.8823381247032],[-156.681466518515,20.8824469845682],[-156.681752053109,20.8830180552135],[-156.681567645052,20.8831013367033],[-156.681032267014,20.882887184911],[-156.679717614889,20.8823161144901],[-156.679949611427,20.8833928200043],[-156.678093632432,20.8831132335962],[-156.676814671667,20.8830656444559],[-156.675321560154,20.8832857447798],[-156.673977165341,20.8838270714836],[-156.673840345564,20.8841304531505],[-156.674696951875,20.884505217763],[-156.67503602482,20.8853618237489],[-156.675434585016,20.8854391566864],[-156.67549407172,20.8858496138355],[-156.675726068233,20.8864147355451],[-156.67623170395,20.8869263201044],[-156.677237026498,20.8882052796616],[-156.677861634708,20.8890499882986],[-156.677867583385,20.8891987052427],[-156.677683175103,20.8894009590265],[-156.677504715996,20.8895853675831],[-156.67738574229,20.8900672081679],[-156.67776050768,20.8902932566674],[-156.678962135289,20.8908821732214],[-156.679628384387,20.8907632001802],[-156.679658128152,20.8906382783929],[-156.679729511838,20.8903765382812],[-156.679907971045,20.8902397191536],[-156.681448672543,20.8902099759053],[-156.681496261732,20.8893771645988],[-156.681746104452,20.8893652667882],[-156.681740155907,20.8890083481615],[-156.68187102669,20.8889786043639],[-156.681835335028,20.888562199364],[-156.682144664703,20.888526506746],[-156.682168458739,20.8884075339755],[-156.682477789119,20.8883599452242],[-156.682323124325,20.8878126691663],[-156.682810913365,20.8876758502373],[-156.683257062383,20.8875687744233],[-156.68361993068,20.8874438528115],[-156.684244538958,20.8874616988369],[-156.684232641315,20.8877948225401],[-156.68497622324,20.8878305153354],[-156.684964325996,20.8880208721724],[-156.684946480213,20.8888001451624],[-156.685065452839,20.8895734702881],[-156.685392628968,20.8903408462953],[-156.684982171663,20.8903586917292],[-156.68502381187,20.8910189925662],[-156.685481858869,20.8909654550196],[-156.685529447484,20.8914294497206],[-156.685505653155,20.8920778528123],[-156.685380731439,20.8928154853741],[-156.684958376942,20.8941122914581],[-156.684839404098,20.8950045894225],[-156.684313516814,20.8950683336074],[-156.684237017617,20.8945300130634],[-156.683939584556,20.8945419107979],[-156.683925308239,20.8944705266361],[-156.684101387784,20.8944514909961],[-156.68400145108,20.8936876841709],[-156.683275715331,20.893761447308],[-156.682861689422,20.8937947596143],[-156.68276651084,20.8932213099013],[-156.68229537742,20.8932760373085],[-156.682390555536,20.8938923174343],[-156.681324557301,20.894025567256],[-156.680636893015,20.8940826745665],[-156.680506022868,20.8933521795174],[-156.680441776858,20.8933355234771],[-156.680322803907,20.8936543712944],[-156.680239523315,20.8941374021766],[-156.680239522543,20.894199268082],[-156.681300762388,20.8940898130383],[-156.681410217815,20.8945252540502],[-156.681690994011,20.8945038390359],[-156.681629128032,20.8940565000111],[-156.682014600721,20.8940184291813],[-156.682105020537,20.8945561867287],[-156.682454801094,20.894556187087],[-156.682854550222,20.8945585665941],[-156.683013167814,20.8955756596203],[-156.683048859645,20.8958849896216],[-156.68331060012,20.8968189283581],[-156.683792441357,20.8968546201722],[-156.683840030489,20.8959980141634],[-156.684797763197,20.8960158607418],[-156.684672841309,20.8991448513889],[-156.683792441508,20.8991270053821],[-156.68378649198,20.8982763479683],[-156.683661570486,20.898264450959],[-156.68364967333,20.8980919398627],[-156.683286805969,20.8980681453065],[-156.683286805283,20.8986689587913],[-156.682775221554,20.8986392162226],[-156.682775221445,20.898847418558],[-156.683274908405,20.898859315978],[-156.6832094732,20.8995493598835],[-156.684137462762,20.8996266924496],[-156.684696636604,20.8996445377854],[-156.684601457473,20.9020061530829],[-156.684536022155,20.9020358965544],[-156.684191000384,20.9019704611353],[-156.68391736233,20.9018217447041],[-156.684309973539,20.9007271930001],[-156.684315922792,20.9004000168117],[-156.684143411201,20.9000906868916],[-156.684143411083,20.8996385891285],[-156.68231122667,20.8994839249498],[-156.682311227005,20.8999419704813],[-156.682495634423,20.8999598165198],[-156.682453994366,20.9003643250347],[-156.682144664224,20.9003464788492],[-156.682162510576,20.8999419709084],[-156.681918615419,20.8999300736684],[-156.680050738261,20.8997635109496],[-156.680074533557,20.8993292595047],[-156.679788998033,20.8993292599872],[-156.679747357643,20.8997397163871],[-156.679604589988,20.8997397168359],[-156.679592692467,20.8998408433012],[-156.679515360045,20.8998586894061],[-156.679426130655,20.8997278190491],[-156.679307156877,20.8994660781499],[-156.679194133191,20.8994422841431],[-156.679075159699,20.8993590032054],[-156.679098954536,20.8991270049274],[-156.678825316298,20.8990080319584],[-156.678712292253,20.8992340813615],[-156.67846839714,20.8997932547764],[-156.678492192234,20.8998884330669],[-156.678664702495,20.9001204304987],[-156.678878854236,20.900298890147],[-156.6787301378,20.9005011439304],[-156.678718240394,20.900762884835],[-156.67890264904,20.9009413439758],[-156.679146543312,20.9011198038915],[-156.67919413252,20.9014350822007],[-156.679217927092,20.901726565937],[-156.679372592068,20.9017384632368],[-156.679860381449,20.9018157960657],[-156.681133393102,20.9017563099228],[-156.681978102238,20.9017860524788],[-156.683655622341,20.9019764101928],[-156.683679416821,20.9020121014995],[-156.68362587863,20.9021846128482],[-156.683483111043,20.9022024582526],[-156.683227318567,20.9022797912777],[-156.683173781325,20.9024760970446],[-156.683245165121,20.903023372169],[-156.68366751894,20.9037788517391],[-156.68372700621,20.9039513625228],[-156.683500956671,20.9041536166343],[-156.683233268068,20.90432017897],[-156.683090500238,20.9043439729735],[-156.682977475938,20.9042666410449],[-156.682846605254,20.9042368972217],[-156.682668145987,20.9042666406656],[-156.682358815288,20.9043499216692],[-156.682073280322,20.9043975116825],[-156.682007845669,20.9044986387098],[-156.682317174705,20.905307655276],[-156.682340969684,20.9054563715042],[-156.682210099118,20.9054682689973],[-156.681972153548,20.9054444742113],[-156.681823437236,20.9054920630639],[-156.6820732805,20.9060571850261],[-156.682596761438,20.9069435346981],[-156.682739529522,20.9070327642438],[-156.682894193988,20.9072290699962],[-156.682846605441,20.9073301964917],[-156.682721683623,20.9073064018174],[-156.682572966778,20.9071219935537],[-156.682412353544,20.907038712801],[-156.68221009937,20.9072945052345],[-156.681793693507,20.9075562454285],[-156.681597388592,20.9076633208695],[-156.681341596219,20.9077466020083],[-156.681091752853,20.9078120376837],[-156.680824063656,20.9078358325994],[-156.680657501236,20.9078060888963],[-156.680467144439,20.9077941914914],[-156.680300582091,20.9078953183888],[-156.680080481726,20.9080083428977],[-156.67990202197,20.9081213675509],[-156.679735460313,20.9082581865617],[-156.679586743795,20.9085020812973],[-156.679414232312,20.9085377731127],[-156.679057313605,20.9084842353039],[-156.679033519468,20.9076930646255],[-156.678563575768,20.9077644484492],[-156.677129950226,20.9078239344423],[-156.675993757289,20.9077882427462],[-156.675547608917,20.9064022072809],[-156.674928949206,20.905533703836],[-156.67401880515,20.9047246868512],[-156.673275223404,20.9041893083365],[-156.673001585244,20.9040524893382],[-156.67286476695,20.9038740296115],[-156.672745793731,20.9032375243011],[-156.672549488569,20.9024404041198],[-156.672186619877,20.9017503610333],[-156.671912982508,20.9014588767054],[-156.67125863064,20.9009651388366],[-156.670848173983,20.9006141681333],[-156.670503151967,20.9004832976401],[-156.670271154302,20.9003821709886],[-156.670027259325,20.9003286331882],[-156.669741724284,20.9004238115923],[-156.669479983788,20.9004595029609],[-156.669152808054,20.9003702738351],[-156.669111167425,20.900245351531],[-156.669194448078,20.8998467920556],[-156.669194447997,20.8994184895947],[-156.669265831655,20.8991805430874],[-156.669462137298,20.8988295728234],[-156.66956921321,20.8984369615692],[-156.669593007997,20.8979670177536],[-156.6696227512,20.8974256904485],[-156.669581110233,20.8969914387104],[-156.669670340651,20.8966821090368],[-156.66980121063,20.8961526792377],[-156.669932081276,20.8955459168342],[-156.669979670163,20.8949748461502],[-156.670051054633,20.8942253154959],[-156.670265205312,20.8937970132705],[-156.670354435991,20.8935352718003],[-156.670241411215,20.8930474830641],[-156.670229514035,20.8927916906946],[-156.670241411421,20.8926548717744],[-156.670289000812,20.8925299499956],[-156.670205719514,20.8924050282128],[-156.670181924579,20.8922801065886],[-156.670277102707,20.8922206196109],[-156.670336589194,20.8921135446655],[-156.670223565541,20.8917863681227],[-156.670271154729,20.8916079092249],[-156.6704020249,20.8914056543382],[-156.670729200835,20.8913342710404],[-156.670848173772,20.8911796059539],[-156.671133709165,20.8906739708051],[-156.67162744749,20.8903527432656],[-156.672067647207,20.8899839272552],[-156.672376977292,20.8895794182677],[-156.672501899168,20.8889012725795],[-156.672626820303,20.8888834262819],[-156.672864766848,20.8889369637949],[-156.673144353456,20.8887406585504],[-156.67318599374,20.8885503014518],[-156.673174096599,20.8882707151991],[-156.672727948309,20.8877650793901],[-156.672478104921,20.887289187714],[-156.672079544525,20.8863314548291],[-156.672002212259,20.8859209970802],[-156.671740471623,20.8851476721549],[-156.671240784417,20.8853082858257],[-156.671026632891,20.8852725947099],[-156.67051504968,20.8847134212909],[-156.670830327989,20.8843862448897],[-156.670657817047,20.8841780423808],[-156.670836276776,20.8839936338358],[-156.670616176558,20.8837318931527],[-156.670217617133,20.8840114802602],[-156.669527573404,20.8834642036633],[-156.669259883927,20.8838330207395],[-156.668974347966,20.884011480192],[-156.668778042583,20.8837735339776],[-156.668801836941,20.8834582554245],[-156.668504404467,20.8834166152047],[-156.668171280459,20.8834404095119],[-156.667344418041,20.8839281986037],[-156.66701129307,20.8837735340349],[-156.666446171194,20.8835772279393],[-156.665845357358,20.883470152582],[-156.665339721804,20.8833392822374],[-156.664685370072,20.8833749741038],[-156.664042915436,20.8836664582724],[-156.663346923642,20.8843029634899],[-156.663043542377,20.8848918802999],[-156.662930517537,20.8850584424607],[-156.662335652767,20.8851179296405],[-156.661764581223,20.8852131075818],[-156.661401713767,20.8853606337533],[-156.66098292829,20.8854558129244],[-156.660507036239,20.8855890623342],[-156.660297644008,20.8854748484285],[-156.659878859348,20.8843707780295],[-156.660126322485,20.8842756003622],[-156.660906786408,20.8841804217528],[-156.661116178468,20.8840281361341],[-156.661211356732,20.8837616367371],[-156.66124942864,20.8833618867484],[-156.661915677929,20.882962137211],[-156.66237253357,20.8827337097848],[-156.662410605565,20.8824672095873],[-156.66277228317,20.882276852477],[-156.66292456897,20.8818580682504],[-156.663267211025,20.8816106040775],[-156.663743103253,20.881496389356],[-156.663914424352,20.8805636412049],[-156.664238031092,20.8793834281997],[-156.664390317283,20.8779938233866],[-156.664466460112,20.8756905050519],[-156.664656817034,20.8724163670829],[-156.664713923709,20.8696561927508],[-156.664390316816,20.8669911965194],[-156.663685996684,20.8646498063282],[-156.663057818756,20.8628414160962],[-156.662163141538,20.8613185615383],[-156.661477857237,20.8604238841069],[-156.659745609886,20.8581396018338],[-156.658298897034,20.8561979616673],[-156.6553102942,20.8524860026042],[-156.657905896677,20.8499605573197],[-156.657932072126,20.8499867326585],[-156.658631633726,20.8505744594433],[-156.660647791355,20.8521855337167]]]]}},{"type":"Feature","properties":{},"geometry":{"type":"MultiPolygon","coordinates":[[[[-156.666187238841,20.8587813101461],[-156.66618700149,20.8587811895163],[-156.666183841737,20.8587765861822],[-156.666187238841,20.8587813101461]]],[[[-156.666187238841,20.8587813101461],[-156.66632958452,20.8588539191134],[-156.666505068823,20.8590323782469],[-156.666570504713,20.8590442757584],[-156.666734092157,20.8589699173621],[-156.666966089592,20.8592078636216],[-156.667153472077,20.8593684773593],[-156.667281367994,20.8596450896378],[-156.667400341274,20.8598681640314],[-156.66761151872,20.859689704576],[-156.667840541771,20.8595380142063],[-156.667998180957,20.8596688844509],[-156.668161769292,20.8598146261764],[-156.668358074204,20.8596123716811],[-156.668578174197,20.8593268370781],[-156.668789351304,20.8591929922821],[-156.669054066548,20.8591007878208],[-156.669553753396,20.8594725784123],[-156.669779801912,20.8599068304356],[-156.66968759871,20.8600882642109],[-156.669696521433,20.8605463107603],[-156.669732213404,20.8607515391145],[-156.66995231317,20.8607396416018],[-156.670098055265,20.8612363540564],[-156.670327077957,20.8617330663634],[-156.670660202542,20.8621435236952],[-156.67047282033,20.8623071113155],[-156.670663177658,20.8625153143183],[-156.670889226413,20.862354701021],[-156.671445425106,20.8628900789978],[-156.671725011608,20.863074487325],[-156.67233474865,20.8636277127395],[-156.672554849019,20.8636723267585],[-156.672771974472,20.8638478125488],[-156.67362263197,20.8649512875609],[-156.673949807356,20.8654331282212],[-156.673515555805,20.8657097402786],[-156.674047960706,20.8663997838183],[-156.67461308256,20.8660636852485],[-156.674874823279,20.8663700414017],[-156.674250214742,20.8666882937501],[-156.675088974013,20.8678036658578],[-156.67570466001,20.8674735158714],[-156.67618947547,20.8681427391202],[-156.676641572566,20.8686632462436],[-156.677153156503,20.8694246736072],[-156.677521973453,20.8700284621714],[-156.678021660274,20.8709980927164],[-156.678717651963,20.872324642302],[-156.678803908197,20.8726726383999],[-156.678765241333,20.8728124313218],[-156.67839286574,20.8731157714897],[-156.678512678042,20.8732482874077],[-156.678592730542,20.8735292439485],[-156.678800933837,20.8739426750197],[-156.679499900219,20.8747100515972],[-156.679937125927,20.8751859433262],[-156.680276199476,20.8753525061546],[-156.680725322689,20.8758046031251],[-156.680995985635,20.8761228565088],[-156.681111985102,20.8764411088205],[-156.68139454594,20.8768039770572],[-156.68132316221,20.8769318729978],[-156.682608070562,20.8784220107247],[-156.682777607134,20.8784041649297],[-156.683342729118,20.8789633376177],[-156.683744263218,20.8793916405127],[-156.684214206806,20.8797366623864],[-156.684618715394,20.8800370697881],[-156.68437184592,20.8801917343948],[-156.684487845103,20.88034045057],[-156.684746611603,20.8801619915202],[-156.685659729051,20.8805635254809],[-156.68609992931,20.8809144955728],[-156.685757881884,20.8811821849579],[-156.686058289247,20.8815093607898],[-156.686174287461,20.8815272070264],[-156.686415207978,20.8816759233701],[-156.686676948864,20.8816848458262],[-156.686843510797,20.8817621790245],[-156.687013047709,20.8816699742467],[-156.687414581808,20.8820358166052],[-156.687682271376,20.8825027861936],[-156.687578169787,20.8830976515229],[-156.687364018206,20.8831214459313],[-156.686439003136,20.8830024728678],[-156.68592741904,20.8830589844943],[-156.685751933664,20.8824581711981],[-156.686308132784,20.8822678143502],[-156.686204031098,20.8820001251463],[-156.686105877961,20.8818573567976],[-156.685945264343,20.8819525358649],[-156.685793573711,20.88175623016],[-156.685573474077,20.8818811519413],[-156.685290913063,20.8819912018717],[-156.685192760034,20.8817889472857],[-156.685139222813,20.881577770837],[-156.685234401225,20.8815301817089],[-156.685163016688,20.881387413265],[-156.685371219713,20.8812089540617],[-156.685487218506,20.8813457732418],[-156.685668652157,20.8812119281136],[-156.685543730729,20.8810691610342],[-156.685436655408,20.8810513151119],[-156.685127324811,20.8807449595439],[-156.684844763713,20.8808044458893],[-156.684508665024,20.880965059514],[-156.684172565996,20.8811048523077],[-156.683080988508,20.8815837193969],[-156.682941195248,20.881643205793],[-156.68273596706,20.8812803382533],[-156.682432585785,20.8814141829496],[-156.682646737236,20.8817859735322],[-156.68199833359,20.8820863798645],[-156.682144076321,20.8824254533874],[-156.681980487515,20.8825176578183],[-156.681775259161,20.8822261731317],[-156.681584902451,20.8823154035289],[-156.681049523571,20.8814201307008],[-156.680802655111,20.8811078272421],[-156.681079267356,20.880932341649],[-156.68128152128,20.8812327482055],[-156.681926950072,20.8808431116483],[-156.681772285258,20.8806081402655],[-156.681873412547,20.8805546024302],[-156.681700901407,20.8803196301159],[-156.681037626938,20.8807360359832],[-156.68089188511,20.8805010639544],[-156.680639067263,20.8806527551293],[-156.680701527346,20.8807479330836],[-156.680540914193,20.8808579832768],[-156.679999586478,20.8802779902738],[-156.680172097659,20.8801025047387],[-156.680451684764,20.8804148085606],[-156.68068963051,20.8802898873264],[-156.681790131542,20.8796860986014],[-156.682105409893,20.879498716063],[-156.682438534167,20.8792696935142],[-156.681959668103,20.8786391360298],[-156.682379047341,20.8783327804425],[-156.682224382708,20.8781751417099],[-156.68181987451,20.8784695998802],[-156.681686030187,20.878564777708],[-156.682007257241,20.8790525672663],[-156.681790131373,20.8791864121283],[-156.681605723398,20.8789306200635],[-156.681370751602,20.8790882599161],[-156.681147677174,20.8787521610191],[-156.680918653129,20.8788860050087],[-156.680460607498,20.8781513469355],[-156.679666461992,20.8786034441966],[-156.680246455929,20.8795195369754],[-156.679464208247,20.8799389168589],[-156.677926481416,20.8782673453737],[-156.67742679449,20.8777468386522],[-156.678143607644,20.8771430499322],[-156.678036531375,20.8770211030257],[-156.678286375416,20.8767920800246],[-156.679125069615,20.8767145399044],[-156.679353174378,20.8771064111549],[-156.678841590098,20.8774276380127],[-156.679365071495,20.8781355274443],[-156.67972199017,20.8779273245945],[-156.67945430148,20.8775644569722],[-156.679603017603,20.877475226885],[-156.68059049402,20.8768922593777],[-156.680132447468,20.8762438566161],[-156.679133074031,20.8767137997178],[-156.679125069615,20.8767145399044],[-156.67912117637,20.8767078507536],[-156.678286375416,20.8767920800246],[-156.678110889305,20.876598748729],[-156.678075197582,20.8765600825058],[-156.677108541873,20.8773750471788],[-156.675460765218,20.8757540401621],[-156.675588661024,20.8756172204482],[-156.675773069561,20.8757778342715],[-156.675811735151,20.8758165007055],[-156.676424446442,20.8753465572524],[-156.676495830772,20.8754268639359],[-156.676947928477,20.8750580475345],[-156.676588034741,20.8746832823541],[-156.675425073385,20.8757064507141],[-156.674616056527,20.8748260501546],[-156.674149087206,20.874153852412],[-156.673887346683,20.873737447104],[-156.673444171578,20.872690483721],[-156.673119970949,20.8718993129655],[-156.672501310289,20.870379432248],[-156.671933214206,20.8690201656422],[-156.67167444765,20.8683301215419],[-156.671136095207,20.8670095208064],[-156.670565024002,20.8656740485735],[-156.669648932163,20.8637883259962],[-156.669339602486,20.8631904860046],[-156.667959514335,20.861263122977],[-156.667204036,20.8601953397483],[-156.666187238841,20.8587813101461]]]]}},{"type":"Feature","properties":{},"geometry":{"type":"Polygon","coordinates":[[[-156.657096315355,20.8554998591438],[-156.658415012991,20.8570733963952],[-156.658286521976,20.8574303155804],[-156.657808250501,20.8578300645184],[-156.658450704389,20.858693808749],[-156.658800485619,20.8586081486777],[-156.659328726008,20.8584511043923],[-156.65952146162,20.8586438406451],[-156.65955715435,20.8587937460047],[-156.65922878851,20.8589686365793],[-156.658971806307,20.8591042658423],[-156.659367987082,20.8597895504598],[-156.659325156881,20.8598859192203],[-156.658879007071,20.859864504214],[-156.658425720603,20.8601072091934],[-156.658739809412,20.8608067706882],[-156.657576252335,20.8612636271731],[-156.656840999457,20.8601571773629],[-156.656437680968,20.860371328775],[-156.656287299171,20.860116012789],[-156.65656331583,20.8598304777702],[-156.656154048516,20.859126157119],[-156.657201011561,20.8583076221852],[-156.656496691694,20.8572225887225],[-156.656106459538,20.8562327330289],[-156.657096315355,20.8554998591438]]]}},{"type":"Feature","properties":{},"geometry":{"type":"Polygon","coordinates":[[[-156.658657718182,20.857394623392],[-156.658857592008,20.8575302529333],[-156.659107435892,20.8578372029242],[-156.658786208992,20.858037077501],[-156.658400736079,20.8576373285569],[-156.658657718182,20.857394623392]]]}},{"type":"Feature","properties":{},"geometry":{"type":"Polygon","coordinates":[[[-156.6823869867,20.8825613250896],[-156.68267847074,20.882418557367],[-156.682958056816,20.882876603785],[-156.683273335756,20.8828290138046],[-156.683451794983,20.8827635792645],[-156.683558871103,20.8832692141519],[-156.683439898488,20.8836915691822],[-156.683249540772,20.8836201852283],[-156.683273335712,20.8833227522798],[-156.68300564653,20.8832394710627],[-156.682714162301,20.8833168035184],[-156.682607086591,20.8829360897364],[-156.6823869867,20.8825613250896]]]}},{"type":"Feature","properties":{},"geometry":{"type":"Polygon","coordinates":[[[-156.653206073356,20.8508432929644],[-156.653024042487,20.8509739810176],[-156.652167436363,20.8516878198959],[-156.651691544117,20.8516402307701],[-156.650834938155,20.8516164358756],[-156.650144895358,20.8512833114551],[-156.64938346791,20.8508788027617],[-156.648669628703,20.8504980888995],[-156.64790820124,20.8496414830261],[-156.647622666555,20.8493083589992],[-156.647503693063,20.849046617648],[-156.648050969302,20.8487372884174],[-156.647789228552,20.8482851907229],[-156.648931370251,20.848023449387],[-156.650263868123,20.847952066236],[-156.649811770462,20.8472858170974],[-156.649669003051,20.8468813086931],[-156.650002127259,20.8467623352946],[-156.651168063555,20.848713493617],[-156.651977079498,20.8498080456539],[-156.653095426667,20.8508550084523],[-156.653206073356,20.8508432929644]]]}},{"type":"Feature","properties":{},"geometry":{"type":"Polygon","coordinates":[[[-156.650287662849,20.8465957731181],[-156.649883154689,20.8458819352378],[-156.650192483775,20.8457153728463],[-156.650692171436,20.8466909517534],[-156.652357793527,20.8459533184633],[-156.653452346118,20.8456439887704],[-156.653690291499,20.8459533189157],[-156.65404721061,20.84576296239],[-156.654880022101,20.8467147461398],[-156.655617654684,20.8475713521658],[-156.656450466524,20.8483089847376],[-156.657259482735,20.8494749213868],[-156.657905896677,20.8499605573197],[-156.657534438552,20.8503219752698],[-156.656759796679,20.8495225102236],[-156.656474261229,20.849284564317],[-156.655760422963,20.8499746080666],[-156.655046584007,20.8506170622283],[-156.654475513667,20.8512357219931],[-156.654071005218,20.8514498732167],[-156.652762301807,20.8501649645563],[-156.651858106527,20.8492131798249],[-156.651013398379,20.8480194838106],[-156.650287662849,20.8465957731181]]]}}]}