{"type":"FeatureCollection","features":[{"type":"Feature","properties":{"name":"Lahaina district"},"geometry":{"type":"MultiPolygon","coordinates":[[[[-156.626965,21.022535],[-156.626537,21.022393],[-156.626508,21.022366],[-156.626343,21.022355],[-156.625388,21.022264],[-156.624579,21.022244],[-156.623987,21.022245],[-156.623799,21.022283],[-156.623606,21.022352],[-156.623501,21.022446],[-156.623424,21.022463],[-156.623336,21.022434],[-156.623284,21.022479],[-156.623201,21.022496],[-156.623119,21.022436],[-156.622985,21.022398],[-156.622838,21.022391],[-156.622287,21.022442],[-156.622058,21.022484],[-156.621911,21.022541],[-156.621671,21.022619],[-156.621343,21.022632],[-156.621173,21.022662],[-156.620962,21.022767],[-156.62088,21.022861],[-156.620775,21.023103],[-156.620757,21.023161],[-156.620692,21.0233],[-156.620604,21.023417],[-156.620564,21.023466],[-156.620581,21.023529],[-156.620581,21.023665],[-156.620534,21.023691],[-156.620446,21.02369],[-156.62034,21.023688],[-156.620229,21.023727],[-156.620018,21.023833],[-156.61983,21.023934],[-156.619725,21.023887],[-156.61966,21.023877],[-156.619601,21.023877],[-156.619526,21.023921],[-156.619367,21.023959],[-156.619286,21.023931],[-156.619174,21.023862],[-156.619045,21.023815],[-156.618986,21.023805],[-156.618899,21.023844],[-156.61888,21.023934],[-156.618823,21.024096],[-156.618751,21.024194],[-156.618746,21.02433],[-156.618705,21.024352],[-156.618582,21.024242],[-156.618465,21.024195],[-156.61833,21.024202],[-156.617937,21.024223],[-156.617772,21.024284],[-156.617579,21.024327],[-156.617421,21.024325],[-156.61724,21.024295],[-156.617028,21.024301],[-156.616882,21.024322],[-156.616859,21.024357],[-156.616835,21.024411],[-156.616759,21.024437],[-156.616747,21.024509],[-156.6167,21.024549],[-156.616712,21.024676],[-156.616729,21.024708],[-156.616718,21.024775],[-156.616682,21.024797],[-156.616583,21.024791],[-156.616413,21.024717],[-156.616143,21.024541],[-156.61595,21.024376],[-156.615797,21.024288],[-156.615346,21.024169],[-156.615082,21.024075],[-156.614888,21.023987],[-156.614583,21.023883],[-156.61418,21.023706],[-156.613868,21.023498],[-156.613675,21.023387],[-156.613388,21.023329],[-156.61279,21.023253],[-156.612626,21.023192],[-156.612444,21.023099],[-156.61204,21.022719],[-156.611993,21.022641],[-156.611788,21.022458],[-156.611676,21.022375],[-156.611366,21.022217],[-156.611249,21.022102],[-156.611137,21.021947],[-156.611079,21.021856],[-156.610703,21.021503],[-156.610627,21.021389],[-156.610511,21.021288],[-156.610252,21.021149],[-156.609895,21.021149],[-156.609672,21.021195],[-156.609344,21.021317],[-156.609121,21.021418],[-156.609015,21.021543],[-156.608974,21.021619],[-156.608968,21.021691],[-156.608968,21.021926],[-156.608998,21.022062],[-156.609062,21.022288],[-156.609167,21.022461],[-156.609285,21.02263],[-156.609297,21.022734],[-156.609267,21.022829],[-156.609255,21.022932],[-156.609227,21.023049],[-156.609226,21.023374],[-156.609238,21.023528],[-156.609197,21.023618],[-156.609197,21.023699],[-156.609209,21.02388],[-156.609179,21.023992],[-156.609103,21.024077],[-156.608809,21.024199],[-156.608716,21.02427],[-156.608669,21.024328],[-156.608598,21.024526],[-156.608552,21.02457],[-156.608117,21.024695],[-156.60803,21.024748],[-156.607995,21.024856],[-156.607965,21.025108],[-156.607889,21.025288],[-156.607608,21.025735],[-156.607591,21.02592],[-156.60756,21.026014],[-156.607508,21.026059],[-156.607432,21.026076],[-156.607238,21.025987],[-156.607174,21.025977],[-156.607127,21.026022],[-156.606969,21.026295],[-156.606787,21.026536],[-156.606593,21.026719],[-156.606364,21.026833],[-156.606101,21.026987],[-156.606006,21.027103],[-156.605942,21.027296],[-156.605854,21.027453],[-156.605784,21.027511],[-156.60572,21.027605],[-156.60569,21.02778],[-156.60565,21.027848],[-156.605532,21.027932],[-156.605169,21.02799],[-156.604987,21.028073],[-156.604793,21.028129],[-156.604541,21.028071],[-156.604464,21.028061],[-156.6044,21.028119],[-156.604242,21.028338],[-156.604242,21.028437],[-156.604283,21.028505],[-156.604482,21.028689],[-156.604541,21.028789],[-156.604582,21.028898],[-156.604799,21.029113],[-156.604811,21.029168],[-156.604746,21.029185],[-156.604687,21.029166],[-156.604536,21.0291],[-156.604483,21.029095],[-156.604435,21.029158],[-156.604359,21.029202],[-156.604184,21.029226],[-156.604154,21.029244],[-156.604106,21.029329],[-156.604107,21.029492],[-156.604195,21.029592],[-156.604195,21.029646],[-156.604153,21.0297],[-156.604212,21.029778],[-156.604341,21.02991],[-156.604388,21.029934],[-156.604499,21.030043],[-156.6045,21.03008],[-156.604447,21.030088],[-156.604253,21.029999],[-156.604178,21.029989],[-156.604136,21.030052],[-156.604124,21.030264],[-156.604078,21.030385],[-156.603971,21.030487],[-156.603766,21.030602],[-156.60345,21.030692],[-156.603315,21.030731],[-156.603251,21.030825],[-156.603234,21.03091],[-156.603251,21.031028],[-156.603316,21.031128],[-156.603327,21.031196],[-156.603297,21.031236],[-156.602834,21.031252],[-156.602776,21.031274],[-156.602658,21.03134],[-156.602524,21.031397],[-156.602014,21.031417],[-156.601908,21.03142],[-156.601755,21.031346],[-156.601603,21.031307],[-156.601334,21.031299],[-156.601093,21.031336],[-156.601023,21.031267],[-156.600876,21.031139],[-156.600724,21.031056],[-156.60063,21.031032],[-156.600149,21.031034],[-156.600097,21.031006],[-156.599839,21.030844],[-156.599376,21.030581],[-156.599223,21.030524],[-156.598133,21.030491],[-156.597981,21.030547],[-156.597805,21.030527],[-156.5975,21.030468],[-156.597325,21.03047],[-156.597036,21.030606],[-156.596826,21.030707],[-156.59672,21.030787],[-156.596556,21.03087],[-156.596362,21.030903],[-156.596275,21.030871],[-156.59587,21.030779],[-156.5957,21.030718],[-156.595542,21.030594],[-156.595372,21.030506],[-156.595073,21.030492],[-156.594839,21.030435],[-156.594593,21.030341],[-156.594463,21.03033],[-156.59437,21.030297],[-156.594099,21.030226],[-156.593971,21.030215],[-156.593819,21.030253],[-156.593608,21.030368],[-156.593501,21.030479],[-156.593338,21.030648],[-156.593232,21.030791],[-156.593162,21.030808],[-156.593144,21.030795],[-156.593215,21.030579],[-156.593215,21.030272],[-156.593162,21.030127],[-156.593161,21.030018],[-156.593279,21.02988],[-156.593355,21.029759],[-156.593367,21.029556],[-156.593326,21.029483],[-156.593191,21.029342],[-156.593039,21.029231],[-156.5925,21.028989],[-156.592113,21.028983],[-156.591973,21.028959],[-156.591761,21.028883],[-156.591661,21.028877],[-156.591632,21.028904],[-156.591615,21.028976],[-156.591603,21.02917],[-156.591586,21.029242],[-156.591544,21.029467],[-156.59152,21.029489],[-156.591357,21.029555],[-156.591198,21.029553],[-156.591064,21.029555],[-156.590717,21.029654],[-156.590699,21.029636],[-156.5907,21.029586],[-156.590748,21.029483],[-156.590788,21.029357],[-156.590765,21.029303],[-156.590671,21.029288],[-156.59036,21.02936],[-156.589926,21.029372],[-156.589669,21.029427],[-156.589339,21.02958],[-156.589199,21.029687],[-156.589141,21.029763],[-156.588923,21.030044],[-156.588842,21.030187],[-156.5888,21.030286],[-156.588788,21.030511],[-156.58876,21.030583],[-156.588695,21.030655],[-156.588683,21.030781],[-156.588666,21.030817],[-156.588571,21.030847],[-156.588531,21.030828],[-156.588519,21.030724],[-156.588577,21.030635],[-156.588601,21.030581],[-156.588571,21.030544],[-156.588454,21.030525],[-156.588437,21.030511],[-156.588454,21.03043],[-156.588454,21.030371],[-156.588396,21.030357],[-156.588261,21.030409],[-156.588243,21.030391],[-156.588214,21.030345],[-156.588214,21.030246],[-156.588214,21.030092],[-156.588143,21.030019],[-156.588062,21.030004],[-156.588033,21.029959],[-156.588127,21.029766],[-156.588337,21.02948],[-156.588337,21.02902],[-156.588262,21.02887],[-156.588262,21.028793],[-156.588408,21.028723],[-156.588513,21.028629],[-156.588531,21.028539],[-156.588532,21.028363],[-156.588397,21.028321],[-156.58835,21.028239],[-156.588349,21.028122],[-156.588408,21.027996],[-156.58842,21.027897],[-156.588391,21.027869],[-156.588227,21.027808],[-156.588198,21.027767],[-156.588198,21.027686],[-156.588332,21.027543],[-156.588379,21.027463],[-156.58838,21.027273],[-156.588339,21.027219],[-156.588263,21.027163],[-156.588227,21.027109],[-156.588215,21.026964],[-156.588139,21.026823],[-156.588157,21.026755],[-156.588345,21.026514],[-156.588397,21.02642],[-156.588527,21.026278],[-156.588738,21.026181],[-156.588813,21.026115],[-156.588843,21.026052],[-156.588825,21.02588],[-156.588796,21.025361],[-156.588767,21.025333],[-156.588615,21.025277],[-156.588556,21.025213],[-156.588539,21.025073],[-156.588562,21.024969],[-156.588562,21.024662],[-156.588509,21.024463],[-156.588434,21.024353],[-156.588216,21.024219],[-156.588064,21.0241],[-156.587971,21.02399],[-156.5879,21.023863],[-156.587812,21.023789],[-156.587766,21.023734],[-156.587765,21.023648],[-156.587806,21.023563],[-156.587812,21.02346],[-156.58776,21.023269],[-156.587748,21.022917],[-156.587701,21.022803],[-156.587584,21.022653],[-156.587421,21.022398],[-156.587303,21.022242],[-156.587239,21.022187],[-156.587162,21.022182],[-156.587151,21.022209],[-156.587056,21.022252],[-156.58698,21.022269],[-156.586852,21.022268],[-156.586477,21.022181],[-156.58633,21.022116],[-156.586282,21.022083],[-156.585996,21.02203],[-156.585773,21.021936],[-156.585574,21.021821],[-156.58531,21.021596],[-156.585011,21.021411],[-156.584917,21.021414],[-156.584765,21.021457],[-156.584572,21.021621],[-156.584501,21.021683],[-156.584442,21.021683],[-156.584419,21.02152],[-156.584348,21.021397],[-156.584348,21.021329],[-156.584454,21.021245],[-156.584829,21.02116],[-156.584993,21.021058],[-156.585122,21.020961],[-156.585364,21.020833],[-156.585415,21.020753],[-156.585409,21.020599],[-156.585364,21.020535],[-156.585293,21.020494],[-156.585206,21.020497],[-156.585035,21.020612],[-156.584976,21.02062],[-156.584947,21.020593],[-156.584994,21.020467],[-156.584988,21.020354],[-156.5849,21.020271],[-156.584871,21.020244],[-156.5849,21.020109],[-156.584889,21.019919],[-156.584853,21.019828],[-156.584613,21.019572],[-156.584379,21.01937],[-156.584109,21.019217],[-156.584056,21.019167],[-156.583916,21.019079],[-156.583834,21.018925],[-156.583823,21.018879],[-156.5837,21.01876],[-156.583464,21.018599],[-156.58333,21.018488],[-156.583078,21.018345],[-156.582808,21.018278],[-156.582568,21.018053],[-156.582387,21.017811],[-156.58237,21.017793],[-156.582402,21.017694],[-156.58288,21.013114],[-156.583011,21.007626],[-156.582339,21.002908],[-156.583492,20.999231],[-156.581919,20.994609],[-156.585234,20.984574],[-156.584448,20.982297],[-156.585279,20.978855],[-156.582957,20.973706],[-156.582955,20.969666],[-156.581077,20.966108],[-156.581484,20.962065],[-156.581186,20.959555],[-156.582183,20.956336],[-156.580426,20.950645],[-156.580615,20.947975],[-156.578592,20.941373],[-156.5784,20.940079],[-156.579407,20.937244],[-156.579389,20.936409],[-156.577773,20.929645],[-156.579007,20.92597],[-156.579119,20.923529],[-156.576777,20.921198],[-156.575533,20.916643],[-156.573543,20.915454],[-156.572697,20.914246],[-156.573715,20.911944],[-156.573474,20.908288],[-156.574752,20.906672],[-156.579063,20.905157],[-156.581309,20.902918],[-156.582984,20.90068],[-156.583759,20.898614],[-156.582666,20.897258],[-156.580529,20.896907],[-156.578658,20.893657],[-156.575654,20.891109],[-156.575467,20.889968],[-156.577247,20.888874],[-156.578728,20.889157],[-156.582505,20.889558],[-156.58696,20.887133],[-156.589531,20.884731],[-156.59102,20.881506],[-156.58816,20.874079],[-156.589003,20.871324],[-156.588728,20.869956],[-156.586416,20.869075],[-156.583649,20.869953],[-156.581468,20.867547],[-156.578646,20.865755],[-156.578061,20.865232],[-156.576775,20.862429],[-156.571693,20.862275],[-156.570035,20.861385],[-156.568605,20.859577],[-156.566355,20.853816],[-156.565411,20.851771],[-156.562462,20.851738],[-156.559013,20.851327],[-156.557611,20.850815],[-156.556581,20.84862],[-156.554301,20.841337],[-156.553989,20.839725],[-156.553933,20.839435],[-156.554464,20.837448],[-156.555314,20.834995],[-156.554851,20.83241],[-156.556735,20.828496],[-156.556463,20.827205],[-156.547096,20.813924],[-156.545576,20.811736],[-156.545707,20.806166],[-156.544928,20.804119],[-156.543008,20.79843],[-156.542774,20.795081],[-156.544573,20.791017],[-156.546863,20.786941],[-156.547741,20.785861],[-156.547116,20.783432],[-156.546709,20.780794],[-156.546797,20.780895],[-156.546967,20.780915],[-156.547102,20.780908],[-156.547266,20.780987],[-156.547359,20.781174],[-156.547284,20.781534],[-156.547272,20.781759],[-156.547336,20.781869],[-156.547418,20.781906],[-156.547547,20.781876],[-156.547617,20.781809],[-156.547828,20.78179],[-156.547933,20.781787],[-156.548144,20.781803],[-156.548343,20.781775],[-156.548524,20.781795],[-156.548566,20.782058],[-156.548647,20.782145],[-156.548847,20.782278],[-156.549027,20.782385],[-156.54911,20.782562],[-156.549192,20.782911],[-156.549244,20.783065],[-156.549432,20.783208],[-156.549519,20.783344],[-156.549696,20.783365],[-156.54983,20.783313],[-156.549947,20.783247],[-156.550052,20.78323],[-156.550321,20.783193],[-156.550438,20.783303],[-156.55055,20.78354],[-156.550632,20.784119],[-156.550655,20.784358],[-156.550772,20.784423],[-156.550866,20.784492],[-156.551024,20.784522],[-156.551123,20.784473],[-156.551246,20.784222],[-156.551416,20.784017],[-156.551539,20.78396],[-156.551685,20.783922],[-156.551883,20.783888],[-156.552007,20.783922],[-156.552194,20.78406],[-156.552388,20.784103],[-156.552528,20.784132],[-156.552657,20.784292],[-156.552633,20.784499],[-156.552628,20.78463],[-156.55275,20.784777],[-156.552926,20.784951],[-156.553096,20.784994],[-156.553417,20.78493],[-156.553523,20.785009],[-156.553564,20.785122],[-156.553781,20.785306],[-156.553933,20.785285],[-156.554102,20.785279],[-156.554202,20.785194],[-156.55436,20.785111],[-156.554506,20.785158],[-156.554512,20.785199],[-156.554582,20.785295],[-156.554752,20.785455],[-156.554945,20.785593],[-156.555115,20.78565],[-156.555273,20.785715],[-156.555466,20.78575],[-156.55563,20.78577],[-156.555829,20.78589],[-156.555823,20.786066],[-156.555782,20.786228],[-156.555695,20.786444],[-156.555759,20.786639],[-156.555852,20.786812],[-156.555853,20.786992],[-156.555899,20.787169],[-156.556063,20.787212],[-156.556303,20.787301],[-156.556461,20.787249],[-156.556649,20.78713],[-156.556778,20.78696],[-156.556847,20.786826],[-156.557017,20.78672],[-156.557216,20.786795],[-156.557345,20.786819],[-156.557386,20.786992],[-156.557356,20.787172],[-156.557422,20.787516],[-156.557415,20.787832],[-156.557509,20.788],[-156.557591,20.788092],[-156.557807,20.788108],[-156.558018,20.788192],[-156.558089,20.788202],[-156.558229,20.788209],[-156.558299,20.788115],[-156.558434,20.788],[-156.558603,20.787943],[-156.558691,20.787868],[-156.558831,20.787789],[-156.558972,20.787764],[-156.559107,20.78796],[-156.559182,20.788033],[-156.559388,20.788036],[-156.559604,20.788147],[-156.559686,20.788279],[-156.559774,20.788411],[-156.559745,20.788519],[-156.559756,20.788628],[-156.559921,20.788761],[-156.560108,20.788786],[-156.560231,20.788743],[-156.560341,20.788668],[-156.560482,20.788638],[-156.560635,20.788717],[-156.560734,20.788822],[-156.560693,20.788935],[-156.56071,20.789084],[-156.560792,20.789216],[-156.560951,20.789417],[-156.561062,20.789626],[-156.561209,20.789809],[-156.561337,20.789987],[-156.561437,20.790029],[-156.561887,20.790044],[-156.562227,20.790108],[-156.562437,20.790084],[-156.562578,20.789991],[-156.562695,20.789952],[-156.562812,20.789981],[-156.562982,20.7901],[-156.563268,20.79056],[-156.563421,20.790707],[-156.56369,20.790887],[-156.564211,20.791156],[-156.564405,20.791331],[-156.564515,20.791413],[-156.564697,20.791578],[-156.564896,20.791703],[-156.565077,20.791755],[-156.565482,20.791833],[-156.565786,20.792077],[-156.566078,20.792226],[-156.566389,20.792361],[-156.566822,20.792471],[-156.56698,20.792505],[-156.567296,20.792563],[-156.56732,20.792564],[-156.567688,20.792582],[-156.567975,20.792568],[-156.568273,20.792509],[-156.568502,20.792553],[-156.568953,20.792655],[-156.569262,20.792668],[-156.569801,20.792707],[-156.570229,20.79274],[-156.570409,20.792779],[-156.57055,20.792822],[-156.570801,20.792807],[-156.57127,20.792814],[-156.571562,20.792813],[-156.572089,20.792934],[-156.572359,20.792978],[-156.57257,20.792986],[-156.57285,20.793035],[-156.573207,20.793053],[-156.573518,20.793085],[-156.573845,20.793121],[-156.574226,20.793163],[-156.574595,20.79329],[-156.574945,20.793426],[-156.575526,20.793556],[-156.576063,20.793631],[-156.57635,20.793685],[-156.57649,20.793714],[-156.57721,20.793801],[-156.57772,20.793848],[-156.578001,20.79383],[-156.578171,20.793792],[-156.578499,20.793783],[-156.578756,20.793845],[-156.578856,20.793864],[-156.579095,20.793927],[-156.5795,20.794063],[-156.579798,20.794149],[-156.580097,20.794216],[-156.580266,20.794286],[-156.580389,20.794288],[-156.580515,20.794308],[-156.580679,20.794319],[-156.580861,20.794322],[-156.581095,20.794302],[-156.581656,20.794279],[-156.581967,20.794274],[-156.582253,20.794368],[-156.582458,20.794461],[-156.583283,20.79483],[-156.583682,20.794984],[-156.584044,20.795062],[-156.584203,20.795132],[-156.584845,20.795389],[-156.58532,20.79554],[-156.585548,20.795652],[-156.5857,20.795758],[-156.586379,20.796092],[-156.586612,20.796213],[-156.587251,20.796565],[-156.587626,20.796801],[-156.588146,20.79716],[-156.58848,20.797381],[-156.588942,20.797645],[-156.589346,20.797859],[-156.589627,20.797926],[-156.589814,20.797987],[-156.590018,20.798153],[-156.590288,20.79831],[-156.590452,20.798411],[-156.590586,20.798522],[-156.590949,20.79887],[-156.591142,20.799013],[-156.591335,20.799209],[-156.591481,20.799306],[-156.591826,20.799483],[-156.592107,20.79964],[-156.592265,20.799733],[-156.592354,20.799842],[-156.592382,20.799942],[-156.592441,20.800033],[-156.592535,20.800111],[-156.592844,20.800224],[-156.592927,20.800311],[-156.592968,20.80056],[-156.592985,20.800573],[-156.592997,20.800619],[-156.59309,20.80071],[-156.593302,20.800768],[-156.593501,20.800784],[-156.593564,20.800843],[-156.5936,20.801025],[-156.593746,20.801148],[-156.593945,20.801219],[-156.594225,20.801331],[-156.594355,20.801419],[-156.594952,20.802001],[-156.595255,20.802321],[-156.595659,20.802566],[-156.595906,20.8027],[-156.596128,20.802717],[-156.596151,20.802753],[-156.596157,20.802853],[-156.596186,20.802921],[-156.596186,20.803065],[-156.596215,20.803161],[-156.596303,20.803329],[-156.596391,20.803438],[-156.596707,20.803818],[-156.59759,20.804521],[-156.597819,20.804623],[-156.598363,20.804875],[-156.598643,20.805086],[-156.598836,20.805243],[-156.599252,20.805546],[-156.599574,20.805799],[-156.599896,20.806102],[-156.600194,20.806286],[-156.601148,20.806693],[-156.601646,20.80693],[-156.603074,20.807668],[-156.603694,20.80801],[-156.604034,20.80825],[-156.604415,20.808436],[-156.604736,20.808517],[-156.604865,20.808587],[-156.605023,20.808833],[-156.605339,20.808828],[-156.605597,20.808841],[-156.606007,20.809027],[-156.606457,20.80916],[-156.607048,20.809398],[-156.607282,20.809514],[-156.60747,20.809666],[-156.607967,20.809695],[-156.608886,20.809898],[-156.609488,20.809997],[-156.609583,20.810025],[-156.609817,20.810186],[-156.610268,20.810138],[-156.61056,20.810111],[-156.611456,20.810141],[-156.611678,20.810153],[-156.612181,20.810124],[-156.613048,20.809893],[-156.613347,20.809843],[-156.613446,20.809835],[-156.613803,20.809664],[-156.613897,20.809584],[-156.614436,20.809226],[-156.614992,20.808881],[-156.615477,20.808626],[-156.615958,20.808394],[-156.616203,20.808271],[-156.616315,20.808195],[-156.616525,20.808103],[-156.616636,20.808069],[-156.617065,20.808003],[-156.617328,20.807925],[-156.617573,20.807743],[-156.617889,20.807468],[-156.618042,20.80738],[-156.618147,20.80739],[-156.618246,20.807446],[-156.618364,20.807587],[-156.618639,20.807803],[-156.619125,20.807995],[-156.619277,20.808078],[-156.619499,20.808262],[-156.61964,20.808436],[-156.619774,20.808559],[-156.620107,20.808718],[-156.620284,20.80881],[-156.620488,20.808949],[-156.620699,20.809046],[-156.62088,20.809103],[-156.62112,20.809066],[-156.621531,20.808904],[-156.621776,20.80889],[-156.622086,20.808975],[-156.622309,20.809096],[-156.622625,20.80924],[-156.622731,20.809242],[-156.622795,20.809202],[-156.622929,20.808983],[-156.623152,20.808475],[-156.623186,20.808336],[-156.623275,20.808274],[-156.623439,20.80829],[-156.623585,20.808323],[-156.623614,20.808374],[-156.623544,20.808494],[-156.623351,20.808812],[-156.623187,20.809153],[-156.623198,20.809266],[-156.623287,20.80938],[-156.623509,20.809528],[-156.623976,20.810022],[-156.624141,20.810236],[-156.624223,20.81045],[-156.624363,20.81061],[-156.624615,20.810767],[-156.62513,20.811085],[-156.625592,20.811408],[-156.626102,20.811808],[-156.626376,20.812001],[-156.626611,20.812221],[-156.626746,20.812408],[-156.626962,20.812619],[-156.627067,20.812823],[-156.627149,20.813046],[-156.627202,20.813187],[-156.627313,20.813396],[-156.627688,20.813961],[-156.628127,20.814685],[-156.628372,20.815144],[-156.628519,20.815467],[-156.628536,20.815553],[-156.628548,20.815864],[-156.628524,20.815914],[-156.628513,20.816103],[-156.6287,20.81677],[-156.628846,20.817232],[-156.628916,20.817973],[-156.628933,20.818457],[-156.628945,20.818619],[-156.628986,20.818787],[-156.629309,20.819397],[-156.62953,20.819964],[-156.629653,20.820318],[-156.62977,20.820762],[-156.63001,20.821375],[-156.630344,20.821862],[-156.630432,20.822035],[-156.630503,20.82237],[-156.630555,20.822484],[-156.630748,20.822721],[-156.630959,20.823117],[-156.631093,20.823318],[-156.631327,20.823542],[-156.631854,20.824267],[-156.632299,20.824797],[-156.63269,20.825335],[-156.632884,20.825528],[-156.633148,20.825721],[-156.633317,20.825881],[-156.633364,20.825968],[-156.63337,20.826013],[-156.633481,20.826195],[-156.633593,20.826355],[-156.633774,20.826538],[-156.634576,20.827276],[-156.634979,20.827687],[-156.635284,20.827913],[-156.635682,20.828257],[-156.635811,20.828417],[-156.635987,20.828573],[-156.636484,20.82881],[-156.636754,20.828922],[-156.636917,20.829078],[-156.637064,20.829301],[-156.637122,20.829379],[-156.637187,20.829416],[-156.637426,20.829595],[-156.637573,20.829714],[-156.637707,20.829829],[-156.638076,20.830137],[-156.638111,20.830191],[-156.63831,20.830366],[-156.638374,20.830403],[-156.638486,20.830503],[-156.638673,20.830655],[-156.638831,20.830766],[-156.638966,20.830889],[-156.639207,20.831073],[-156.6393,20.83112],[-156.639511,20.831285],[-156.639691,20.831396],[-156.63978,20.831478],[-156.639798,20.83151],[-156.640395,20.831794],[-156.640476,20.831899],[-156.640424,20.831957],[-156.640366,20.831974],[-156.64033,20.832014],[-156.640319,20.832118],[-156.640365,20.832173],[-156.640523,20.832256],[-156.64108,20.832435],[-156.641426,20.832607],[-156.641724,20.832733],[-156.642157,20.832879],[-156.643533,20.833268],[-156.644012,20.833338],[-156.644639,20.833523],[-156.645002,20.833623],[-156.645359,20.833741],[-156.646196,20.83405],[-156.646419,20.834085],[-156.646665,20.834183],[-156.6468,20.83428],[-156.646963,20.834503],[-156.646987,20.834553],[-156.647203,20.834773],[-156.647514,20.83498],[-156.647713,20.835123],[-156.647948,20.835216],[-156.648099,20.835358],[-156.648246,20.835681],[-156.648322,20.835894],[-156.648492,20.836127],[-156.648814,20.836411],[-156.648908,20.836584],[-156.649101,20.836835],[-156.649264,20.837031],[-156.649464,20.837233],[-156.649668,20.837556],[-156.649744,20.837747],[-156.649774,20.83795],[-156.649833,20.838096],[-156.64985,20.838191],[-156.649967,20.838414],[-156.65009,20.838596],[-156.650295,20.838784],[-156.650465,20.838931],[-156.650523,20.839004],[-156.650676,20.839385],[-156.650706,20.839494],[-156.650752,20.839594],[-156.650839,20.839699],[-156.651109,20.839955],[-156.651231,20.840034],[-156.651378,20.840176],[-156.651449,20.840357],[-156.651466,20.84061],[-156.651467,20.840818],[-156.651484,20.840913],[-156.651495,20.84113],[-156.651524,20.841284],[-156.651572,20.841379],[-156.651689,20.841526],[-156.651824,20.841636],[-156.65187,20.841654],[-156.652093,20.841752],[-156.652204,20.841772],[-156.652456,20.841861],[-156.652579,20.841976],[-156.652684,20.842167],[-156.652714,20.84223],[-156.652953,20.842455],[-156.653264,20.842848],[-156.653439,20.843152],[-156.653463,20.843225],[-156.653492,20.843253],[-156.653545,20.843371],[-156.653667,20.843621],[-156.653762,20.84397],[-156.653773,20.844069],[-156.653879,20.844436],[-156.654014,20.844731],[-156.654137,20.844941],[-156.654301,20.845137],[-156.65443,20.845342],[-156.654541,20.845515],[-156.654565,20.845547],[-156.654564,20.845592],[-156.654658,20.845711],[-156.654717,20.845816],[-156.655003,20.846104],[-156.655073,20.846277],[-156.655108,20.846345],[-156.655255,20.846478],[-156.655466,20.846585],[-156.655554,20.846658],[-156.655582,20.846735],[-156.655589,20.846807],[-156.655648,20.846935],[-156.655829,20.847104],[-156.656151,20.847402],[-156.656321,20.847594],[-156.656531,20.847809],[-156.656678,20.847965],[-156.656701,20.848019],[-156.656906,20.848243],[-156.657012,20.84847],[-156.657082,20.84867],[-156.657129,20.848738],[-156.657234,20.84888],[-156.657381,20.848995],[-156.657954,20.849368],[-156.658254,20.849643],[-156.658323,20.849735],[-156.65864,20.850051],[-156.658728,20.850133],[-156.658997,20.850381],[-156.659214,20.850524],[-156.659477,20.850667],[-156.659794,20.85087],[-156.659969,20.851003],[-156.660719,20.851691],[-156.660906,20.851874],[-156.661264,20.852087],[-156.661638,20.85244],[-156.662013,20.852824],[-156.662265,20.853144],[-156.662475,20.853354],[-156.66264,20.853573],[-156.662687,20.853646],[-156.662957,20.853907],[-156.663149,20.854041],[-156.663314,20.854196],[-156.663401,20.854338],[-156.663495,20.854434],[-156.663659,20.85454],[-156.664045,20.854866],[-156.664087,20.854916],[-156.66418,20.855007],[-156.664403,20.855209],[-156.665316,20.856039],[-156.665515,20.856195],[-156.665685,20.856378],[-156.666048,20.856627],[-156.666575,20.857081],[-156.666862,20.857415],[-156.667026,20.857597],[-156.667442,20.85786],[-156.667682,20.857977],[-156.667729,20.858009],[-156.667823,20.858037],[-156.668063,20.858104],[-156.668216,20.85816],[-156.668526,20.858241],[-156.668936,20.858418],[-156.669146,20.858552],[-156.66931,20.858685],[-156.669368,20.858727],[-156.669515,20.858873],[-156.66965,20.859141],[-156.669655,20.859186],[-156.669878,20.859451],[-156.669919,20.859524],[-156.669949,20.859633],[-156.669995,20.859733],[-156.670031,20.859918],[-156.670083,20.860091],[-156.67013,20.8602],[-156.670189,20.860462],[-156.670189,20.860648],[-156.670165,20.86085],[-156.670206,20.860995],[-156.670324,20.861236],[-156.670353,20.8613],[-156.67037,20.86135],[-156.670435,20.86145],[-156.67081,20.861871],[-156.67088,20.861917],[-156.671132,20.862159],[-156.671267,20.862378],[-156.671372,20.862506],[-156.671553,20.862599],[-156.671706,20.862677],[-156.671853,20.862729],[-156.672152,20.862959],[-156.672485,20.863293],[-156.672555,20.86342],[-156.672643,20.863557],[-156.672678,20.863657],[-156.672859,20.863872],[-156.673082,20.864164],[-156.673112,20.864223],[-156.673282,20.864442],[-156.673498,20.86467],[-156.673639,20.864885],[-156.673686,20.864953],[-156.674201,20.865434],[-156.6744,20.865667],[-156.674459,20.865754],[-156.674711,20.866024],[-156.674922,20.866189],[-156.675151,20.866459],[-156.675343,20.866682],[-156.675567,20.866997],[-156.675678,20.867184],[-156.675854,20.867371],[-156.676029,20.867536],[-156.676164,20.867696],[-156.676258,20.867797],[-156.67641,20.867993],[-156.676592,20.868189],[-156.676738,20.868372],[-156.676844,20.868536],[-156.677019,20.868764],[-156.677048,20.868819],[-156.677153,20.868933],[-156.677242,20.869056],[-156.677383,20.869325],[-156.677452,20.869411],[-156.677558,20.869652],[-156.677904,20.869481],[-156.677956,20.869463],[-156.678009,20.869469],[-156.678091,20.869506],[-156.679146,20.871123],[-156.679315,20.871044],[-156.679433,20.871217],[-156.679163,20.871349],[-156.679269,20.871509],[-156.679105,20.871592],[-156.678654,20.870859],[-156.678753,20.870806],[-156.677986,20.869617],[-156.677534,20.869859],[-156.678589,20.871747],[-156.678795,20.871642],[-156.678853,20.871738],[-156.678906,20.871833],[-156.678624,20.87201],[-156.678625,20.872055],[-156.678806,20.872324],[-156.6789,20.872519],[-156.6789,20.872673],[-156.678853,20.872731],[-156.678361,20.873049],[-156.678361,20.873112],[-156.678642,20.873423],[-156.678731,20.873528],[-156.678818,20.873647],[-156.678929,20.873843],[-156.679181,20.87409],[-156.679462,20.874297],[-156.679598,20.874416],[-156.679662,20.874516],[-156.679761,20.874613],[-156.679844,20.874731],[-156.679972,20.874828],[-156.680171,20.87502],[-156.680212,20.875084],[-156.680318,20.875198],[-156.680329,20.875252],[-156.680412,20.875348],[-156.680558,20.875545],[-156.680651,20.875645],[-156.680828,20.875887],[-156.680904,20.875942],[-156.681027,20.875998],[-156.681185,20.876118],[-156.681267,20.876236],[-156.681367,20.876359],[-156.681471,20.876596],[-156.681484,20.876794],[-156.681518,20.876908],[-156.681578,20.877021],[-156.681759,20.877245],[-156.68204,20.877502],[-156.682192,20.877698],[-156.682398,20.877976],[-156.682532,20.878141],[-156.68272,20.878301],[-156.682936,20.87844],[-156.68306,20.878541],[-156.683206,20.878651],[-156.683329,20.878766],[-156.683481,20.878876],[-156.683722,20.879078],[-156.683827,20.879156],[-156.683915,20.879234],[-156.68402,20.879285],[-156.684213,20.879441],[-156.684495,20.879612],[-156.684841,20.879892],[-156.685023,20.880012],[-156.685198,20.880096],[-156.685561,20.880349],[-156.685685,20.880468],[-156.685819,20.880565],[-156.686042,20.880744],[-156.686534,20.881081],[-156.686791,20.881251],[-156.687342,20.881674],[-156.687535,20.881857],[-156.687647,20.882044],[-156.687775,20.882308],[-156.687822,20.882448],[-156.68784,20.882575],[-156.687881,20.882869],[-156.687834,20.883085],[-156.687735,20.883449],[-156.687424,20.884068],[-156.687284,20.884292],[-156.686973,20.884644],[-156.686886,20.884747],[-156.686822,20.884814],[-156.688098,20.886244],[-156.688192,20.886282],[-156.688661,20.886821],[-156.688526,20.886923],[-156.686704,20.884934],[-156.686687,20.884952],[-156.686617,20.88515],[-156.686353,20.885525],[-156.68633,20.885547],[-156.686289,20.88556],[-156.686242,20.885627],[-156.686153,20.885771],[-156.685967,20.886016],[-156.685914,20.886133],[-156.685791,20.886375],[-156.685615,20.886693],[-156.685445,20.886994],[-156.685416,20.887079],[-156.685387,20.887128],[-156.685387,20.887164],[-156.685293,20.887344],[-156.68524,20.88751],[-156.685193,20.887812],[-156.685147,20.888231],[-156.685165,20.888836],[-156.685194,20.889008],[-156.685212,20.88927],[-156.685252,20.889388],[-156.685311,20.889597],[-156.685347,20.889656],[-156.685393,20.88981],[-156.685423,20.889932],[-156.685481,20.89006],[-156.685539,20.890327],[-156.685581,20.890418],[-156.685639,20.890613],[-156.685675,20.890943],[-156.685687,20.891132],[-156.685663,20.891268],[-156.685657,20.891444],[-156.685633,20.891565],[-156.685616,20.89203],[-156.685569,20.8923],[-156.685557,20.892431],[-156.685529,20.892589],[-156.685493,20.892687],[-156.685476,20.892777],[-156.685464,20.89285],[-156.685423,20.892966],[-156.685389,20.893101],[-156.685318,20.893218],[-156.685241,20.893609],[-156.685225,20.893835],[-156.685171,20.894114],[-156.685154,20.894362],[-156.685113,20.894637],[-156.68509,20.894704],[-156.685067,20.894966],[-156.685096,20.895165],[-156.685137,20.895315],[-156.685154,20.89545],[-156.685201,20.895636],[-156.685319,20.895927],[-156.685348,20.895968],[-156.685423,20.896149],[-156.685471,20.896362],[-156.685483,20.896507],[-156.685441,20.896619],[-156.68533,20.896757],[-156.685242,20.896901],[-156.685166,20.89708],[-156.685167,20.897387],[-156.685189,20.897464],[-156.685202,20.897672],[-156.685166,20.897812],[-156.685155,20.898055],[-156.685172,20.89811],[-156.685184,20.898205],[-156.685219,20.898336],[-156.685231,20.898517],[-156.685202,20.898589],[-156.685155,20.898787],[-156.685137,20.899152],[-156.685126,20.899468],[-156.685108,20.899644],[-156.685067,20.899774],[-156.684992,20.899936],[-156.684979,20.900049],[-156.684962,20.900093],[-156.68495,20.9004],[-156.684892,20.900716],[-156.684892,20.900941],[-156.684915,20.901258],[-156.68495,20.901412],[-156.68495,20.901547],[-156.684991,20.901683],[-156.685056,20.901991],[-156.685102,20.902122],[-156.685126,20.902231],[-156.685156,20.902317],[-156.685238,20.902499],[-156.68532,20.902739],[-156.685349,20.902808],[-156.685372,20.90293],[-156.685442,20.903035],[-156.685577,20.90333],[-156.685724,20.90368],[-156.685865,20.903943],[-156.68604,20.904185],[-156.686123,20.904335],[-156.686239,20.904499],[-156.686346,20.904686],[-156.686503,20.904841],[-156.686615,20.904978],[-156.686902,20.905366],[-156.686943,20.905448],[-156.687013,20.90553],[-156.687166,20.905812],[-156.687306,20.906053],[-156.687359,20.90619],[-156.687389,20.906235],[-156.687499,20.906544],[-156.687587,20.906707],[-156.687681,20.906939],[-156.687769,20.907148],[-156.687886,20.907416],[-156.687974,20.907539],[-156.688033,20.90768],[-156.688062,20.907725],[-156.688109,20.907848],[-156.688173,20.908106],[-156.688232,20.908323],[-156.688366,20.908583],[-156.688561,20.908919],[-156.6888,20.909266],[-156.688993,20.909453],[-156.689222,20.909637],[-156.689445,20.909843],[-156.689685,20.910032],[-156.68989,20.910215],[-156.690213,20.910409],[-156.690312,20.910523],[-156.690318,20.910677],[-156.690341,20.910718],[-156.690453,20.910701],[-156.690523,20.910693],[-156.690646,20.91074],[-156.690839,20.910901],[-156.691033,20.91103],[-156.691255,20.911114],[-156.691753,20.911392],[-156.692063,20.911527],[-156.692334,20.91167],[-156.692814,20.912034],[-156.692966,20.912185],[-156.693142,20.91235],[-156.693547,20.912585],[-156.693997,20.912799],[-156.694436,20.912999],[-156.694613,20.913106],[-156.694748,20.913234],[-156.694853,20.913461],[-156.695287,20.913869],[-156.695439,20.914033],[-156.695515,20.914147],[-156.695615,20.914356],[-156.695662,20.914416],[-156.695843,20.914553],[-156.696025,20.914718],[-156.696131,20.914851],[-156.696212,20.915051],[-156.696317,20.915219],[-156.696587,20.915737],[-156.69674,20.916132],[-156.696862,20.9165],[-156.697144,20.916878],[-156.697209,20.917041],[-156.697221,20.917267],[-156.697203,20.917385],[-156.697145,20.917537],[-156.697056,20.917662],[-156.696969,20.917833],[-156.696969,20.918027],[-156.696969,20.918329],[-156.69677,20.918688],[-156.696728,20.918818],[-156.696664,20.919161],[-156.696605,20.919322],[-156.696576,20.91948],[-156.696507,20.919727],[-156.696413,20.920096],[-156.696401,20.92025],[-156.696354,20.920511],[-156.696296,20.920681],[-156.696248,20.920902],[-156.696237,20.921015],[-156.696219,20.921073],[-156.69619,20.921181],[-156.696131,20.921393],[-156.69612,20.921447],[-156.696056,20.921631],[-156.696044,20.921978],[-156.695939,20.922266],[-156.695786,20.922508],[-156.695652,20.92279],[-156.695594,20.923015],[-156.695547,20.923249],[-156.695535,20.923561],[-156.695506,20.923633],[-156.69547,20.92384],[-156.695442,20.923912],[-156.6954,20.924191],[-156.695371,20.92429],[-156.695353,20.924443],[-156.695278,20.924754],[-156.695277,20.925106],[-156.695295,20.925206],[-156.695313,20.92535],[-156.695354,20.925473],[-156.695359,20.925532],[-156.695388,20.925591],[-156.695435,20.925898],[-156.695536,20.926152],[-156.695595,20.926253],[-156.695682,20.926416],[-156.695788,20.92658],[-156.695929,20.926722],[-156.695987,20.926746],[-156.69611,20.926779],[-156.69621,20.926785],[-156.69649,20.926685],[-156.696778,20.926499],[-156.696895,20.92646],[-156.696947,20.92651],[-156.696942,20.926542],[-156.696871,20.926604],[-156.696689,20.926714],[-156.696632,20.926777],[-156.696619,20.926908],[-156.696661,20.927017],[-156.69672,20.927094],[-156.696866,20.927164],[-156.69696,20.927174],[-156.696989,20.927138],[-156.697018,20.926994],[-156.697065,20.926977],[-156.697135,20.927032],[-156.697164,20.927091],[-156.697136,20.927312],[-156.697076,20.92742],[-156.696948,20.927472],[-156.696761,20.92756],[-156.696567,20.927783],[-156.696508,20.927863],[-156.696451,20.927953],[-156.696327,20.928051],[-156.696046,20.928313],[-156.695975,20.928384],[-156.695841,20.928586],[-156.6957,20.928683],[-156.695525,20.928685],[-156.69498,20.928484],[-156.694939,20.928528],[-156.694927,20.928596],[-156.695542,20.928812],[-156.695624,20.928867],[-156.69563,20.928908],[-156.695554,20.928966],[-156.695449,20.928964],[-156.695197,20.928848],[-156.694938,20.928795],[-156.694775,20.928811],[-156.694652,20.928904],[-156.694388,20.929207],[-156.694283,20.929404],[-156.694083,20.929695],[-156.694042,20.929794],[-156.694025,20.929907],[-156.693985,20.930033],[-156.693955,20.930249],[-156.693896,20.93042],[-156.69389,20.930709],[-156.693861,20.930798],[-156.693756,20.931018],[-156.693621,20.93117],[-156.693545,20.931304],[-156.693504,20.931426],[-156.693464,20.931497],[-156.693446,20.931556],[-156.693381,20.931736],[-156.693282,20.932136],[-156.693246,20.932411],[-156.693193,20.932582],[-156.693177,20.933128],[-156.693159,20.933268],[-156.69313,20.933367],[-156.693101,20.933529],[-156.693083,20.934003],[-156.693054,20.934156],[-156.693025,20.934512],[-156.693024,20.934864],[-156.692995,20.935564],[-156.693013,20.936214],[-156.693031,20.936309],[-156.693031,20.936661],[-156.693031,20.936937],[-156.693031,20.937321],[-156.693019,20.938377],[-156.692985,20.938684],[-156.692938,20.938818],[-156.692897,20.939071],[-156.692821,20.939408],[-156.692803,20.93967],[-156.692779,20.939715],[-156.692751,20.940012],[-156.692745,20.940432],[-156.692692,20.940558],[-156.692628,20.940783],[-156.692599,20.940972],[-156.69258,20.941392],[-156.692558,20.94145],[-156.692558,20.94201],[-156.69254,20.942154],[-156.692499,20.942641],[-156.692453,20.942826],[-156.692435,20.943385],[-156.692453,20.943756],[-156.692493,20.943942],[-156.692494,20.944357],[-156.692441,20.944559],[-156.692423,20.945137],[-156.692424,20.945413],[-156.692406,20.94553],[-156.692395,20.945818],[-156.692377,20.945909],[-156.692366,20.946297],[-156.692337,20.946486],[-156.692307,20.94686],[-156.692301,20.947109],[-156.692242,20.947455],[-156.69223,20.94769],[-156.692201,20.947861],[-156.692137,20.948032],[-156.692032,20.948401],[-156.691885,20.948647],[-156.691826,20.948732],[-156.691768,20.948835],[-156.691658,20.949005],[-156.691463,20.949359],[-156.69123,20.949695],[-156.691001,20.949963],[-156.69096,20.950048],[-156.690661,20.950437],[-156.690404,20.950681],[-156.690386,20.950717],[-156.689988,20.951141],[-156.689735,20.951485],[-156.68963,20.95161],[-156.689449,20.951887],[-156.68922,20.952155],[-156.689026,20.952414],[-156.688881,20.95258],[-156.688658,20.952798],[-156.688417,20.953115],[-156.688207,20.953451],[-156.68806,20.953607],[-156.68792,20.953831],[-156.687815,20.953942],[-156.687726,20.954072],[-156.687575,20.954232],[-156.687533,20.954268],[-156.687415,20.954339],[-156.687188,20.954548],[-156.68707,20.95469],[-156.686865,20.955135],[-156.686754,20.955418],[-156.686724,20.955471],[-156.686701,20.955561],[-156.686643,20.955678],[-156.686554,20.955898],[-156.686478,20.95606],[-156.686314,20.956419],[-156.686291,20.956486],[-156.686227,20.95663],[-156.686186,20.956764],[-156.68608,20.95702],[-156.68605,20.957065],[-156.685899,20.957542],[-156.685828,20.95778],[-156.685617,20.958265],[-156.685389,20.958907],[-156.685377,20.958961],[-156.685336,20.95906],[-156.68529,20.959258],[-156.685179,20.959676],[-156.685108,20.959838],[-156.684973,20.960085],[-156.684932,20.960161],[-156.684745,20.96047],[-156.684692,20.960514],[-156.684463,20.960786],[-156.684388,20.960943],[-156.684288,20.961326],[-156.684283,20.96213],[-156.68426,20.962242],[-156.684288,20.962563],[-156.684288,20.963272],[-156.684271,20.963326],[-156.684247,20.96352],[-156.684184,20.963663],[-156.684107,20.963793],[-156.684008,20.964004],[-156.683826,20.96434],[-156.683762,20.964533],[-156.68368,20.964866],[-156.683621,20.965137],[-156.683598,20.965326],[-156.683539,20.965424],[-156.683422,20.965549],[-156.683375,20.965634],[-156.683364,20.965806],[-156.683381,20.965842],[-156.683393,20.965982],[-156.683334,20.966013],[-156.683112,20.966136],[-156.683,20.96613],[-156.682901,20.966179],[-156.682121,20.966814],[-156.681957,20.966988],[-156.681834,20.967162],[-156.681788,20.967283],[-156.681758,20.967603],[-156.681706,20.967788],[-156.681624,20.967967],[-156.681506,20.96811],[-156.681348,20.968298],[-156.681161,20.968462],[-156.681015,20.968645],[-156.680938,20.968798],[-156.680833,20.969153],[-156.680809,20.969261],[-156.680756,20.969491],[-156.680715,20.96977],[-156.680657,20.969968],[-156.680646,20.970053],[-156.680628,20.970107],[-156.680628,20.970744],[-156.680669,20.970966],[-156.680669,20.971444],[-156.680569,20.9718],[-156.680511,20.971948],[-156.680482,20.972106],[-156.680394,20.972344],[-156.680341,20.972442],[-156.680259,20.972599],[-156.680089,20.972868],[-156.680048,20.972948],[-156.680019,20.972975],[-156.680001,20.973034],[-156.679855,20.973262],[-156.67969,20.973553],[-156.67958,20.973841],[-156.679527,20.974025],[-156.679509,20.97416],[-156.679444,20.974376],[-156.679416,20.974529],[-156.679363,20.974668],[-156.679298,20.974812],[-156.679176,20.975054],[-156.679029,20.975287],[-156.678894,20.975416],[-156.678401,20.975838],[-156.678331,20.97595],[-156.678267,20.97613],[-156.678255,20.976215],[-156.67822,20.976368],[-156.678209,20.976847],[-156.678191,20.977149],[-156.678168,20.977271],[-156.678121,20.977351],[-156.678104,20.977387],[-156.677998,20.977481],[-156.677682,20.977612],[-156.677546,20.977736],[-156.677253,20.977877],[-156.676872,20.978043],[-156.676521,20.978241],[-156.676316,20.978437],[-156.676052,20.978695],[-156.675946,20.978843],[-156.675877,20.978973],[-156.675818,20.979157],[-156.675842,20.979298],[-156.675877,20.979375],[-156.676023,20.979494],[-156.676082,20.97954],[-156.676146,20.979622],[-156.67614,20.979821],[-156.676053,20.979973],[-156.675801,20.980241],[-156.675654,20.980415],[-156.675578,20.980491],[-156.675408,20.98052],[-156.675273,20.980491],[-156.675138,20.980498],[-156.675009,20.98055],[-156.674816,20.980688],[-156.674377,20.980948],[-156.674166,20.98113],[-156.67399,20.981327],[-156.673779,20.981653],[-156.673662,20.981873],[-156.673574,20.982124],[-156.673557,20.982269],[-156.673609,20.982468],[-156.673615,20.982491],[-156.673674,20.982632],[-156.673738,20.982732],[-156.673867,20.982837],[-156.674172,20.983045],[-156.67447,20.983211],[-156.674647,20.983291],[-156.674799,20.983397],[-156.674846,20.983492],[-156.674835,20.983659],[-156.67477,20.983789],[-156.674741,20.983888],[-156.674758,20.983978],[-156.674758,20.984195],[-156.6747,20.984276],[-156.674606,20.98432],[-156.674366,20.984366],[-156.67426,20.98436],[-156.673944,20.984306],[-156.673363,20.984068],[-156.673152,20.984056],[-156.673035,20.984099],[-156.672929,20.984233],[-156.6729,20.984296],[-156.672864,20.984368],[-156.672807,20.98452],[-156.672765,20.984719],[-156.672754,20.984989],[-156.672706,20.985192],[-156.67256,20.985402],[-156.672426,20.985549],[-156.672314,20.985701],[-156.672314,20.985895],[-156.672332,20.985999],[-156.672344,20.986221],[-156.672373,20.986325],[-156.672426,20.986403],[-156.672666,20.986456],[-156.672783,20.986516],[-156.672918,20.986658],[-156.673065,20.986935],[-156.673083,20.987116],[-156.672918,20.987276],[-156.672754,20.987545],[-156.672719,20.987576],[-156.672649,20.987571],[-156.672543,20.987488],[-156.672456,20.987496],[-156.672396,20.987603],[-156.672397,20.987684],[-156.67245,20.987784],[-156.672438,20.987852],[-156.672303,20.987968],[-156.672069,20.988077],[-156.672004,20.988076],[-156.671946,20.988035],[-156.671869,20.987944],[-156.671752,20.98791],[-156.671676,20.987923],[-156.671589,20.98798],[-156.671553,20.988093],[-156.671529,20.988174],[-156.671494,20.988245],[-156.671453,20.988407],[-156.671436,20.988624],[-156.671418,20.988664],[-156.671341,20.988736],[-156.671207,20.988779],[-156.671108,20.988741],[-156.670961,20.988604],[-156.670879,20.98849],[-156.670715,20.988334],[-156.670644,20.988333],[-156.670597,20.988351],[-156.670557,20.988395],[-156.670556,20.988517],[-156.670585,20.988572],[-156.670721,20.988727],[-156.670721,20.988881],[-156.670663,20.988938],[-156.670597,20.988969],[-156.670445,20.988958],[-156.67031,20.988897],[-156.67024,20.988784],[-156.670135,20.988656],[-156.670041,20.988487],[-156.66997,20.988428],[-156.669924,20.988445],[-156.669876,20.988499],[-156.6698,20.988534],[-156.669818,20.988606],[-156.669883,20.988697],[-156.669906,20.988752],[-156.669895,20.989095],[-156.669877,20.989149],[-156.669824,20.989401],[-156.66973,20.989544],[-156.66973,20.98963],[-156.669748,20.989698],[-156.66973,20.98977],[-156.669636,20.989854],[-156.669643,20.989976],[-156.669643,20.990134],[-156.669555,20.990224],[-156.669554,20.990287],[-156.669702,20.990533],[-156.669836,20.99072],[-156.669942,20.990915],[-156.669971,20.991042],[-156.669953,20.991218],[-156.669848,20.991406],[-156.669655,20.991697],[-156.669596,20.991696],[-156.669526,20.99165],[-156.669343,20.991476],[-156.668981,20.991363],[-156.668804,20.99127],[-156.668711,20.991278],[-156.668576,20.991334],[-156.668535,20.991352],[-156.668441,20.99145],[-156.668394,20.991531],[-156.668354,20.991665],[-156.66837,20.9919],[-156.668418,20.992028],[-156.668488,20.992128],[-156.668606,20.992224],[-156.668851,20.992363],[-156.669062,20.992456],[-156.669239,20.992563],[-156.669438,20.992741],[-156.669508,20.992896],[-156.669526,20.993014],[-156.669508,20.993271],[-156.669508,20.993501],[-156.669356,20.993765],[-156.669192,20.994025],[-156.669062,20.994163],[-156.668835,20.994273],[-156.6686,20.99436],[-156.668465,20.994475],[-156.668336,20.994523],[-156.668195,20.994517],[-156.667984,20.994478],[-156.667786,20.994489],[-156.667522,20.994526],[-156.667416,20.99456],[-156.667041,20.994853],[-156.666936,20.994969],[-156.6668,20.995188],[-156.666713,20.995381],[-156.666654,20.995539],[-156.66652,20.995808],[-156.666485,20.995907],[-156.666414,20.996145],[-156.666338,20.99637],[-156.666291,20.996541],[-156.666273,20.996707],[-156.666297,20.996793],[-156.666396,20.996881],[-156.666754,20.997066],[-156.667106,20.997247],[-156.667294,20.997385],[-156.667609,20.99757],[-156.667744,20.997698],[-156.667821,20.997853],[-156.66785,20.997966],[-156.667867,20.998143],[-156.667909,20.998297],[-156.667944,20.998378],[-156.668108,20.998566],[-156.668373,20.998813],[-156.668407,20.998918],[-156.668402,20.999017],[-156.668331,20.999075],[-156.668226,20.999073],[-156.668138,20.999058],[-156.667944,20.998947],[-156.667867,20.998915],[-156.667639,20.998907],[-156.667493,20.998959],[-156.667311,20.999056],[-156.667182,20.999072],[-156.667041,20.999021],[-156.666971,20.999029],[-156.666907,20.999091],[-156.666831,20.999271],[-156.666789,20.999369],[-156.666713,20.999716],[-156.666613,21.000031],[-156.666585,21.00017],[-156.666585,21.000328],[-156.666626,21.000437],[-156.666673,21.000515],[-156.666837,21.00072],[-156.666924,21.000821],[-156.667031,21.000872],[-156.66757,21.001055],[-156.667705,21.001116],[-156.667904,21.001299],[-156.668091,21.001541],[-156.668338,21.001996],[-156.668443,21.00221],[-156.668437,21.002323],[-156.668361,21.002353],[-156.668197,21.002319],[-156.667886,21.002306],[-156.667851,21.002265],[-156.667716,21.002001],[-156.667658,21.001914],[-156.667616,21.001806],[-156.667599,21.001552],[-156.667569,21.001493],[-156.667493,21.001434],[-156.667358,21.001441],[-156.667177,21.001479],[-156.667106,21.001433],[-156.667001,21.001323],[-156.666954,21.001309],[-156.666884,21.001312],[-156.666837,21.001357],[-156.666819,21.001429],[-156.666808,21.001618],[-156.666772,21.001649],[-156.666713,21.00164],[-156.666655,21.001616],[-156.666585,21.001624],[-156.666509,21.001668],[-156.666451,21.001844],[-156.666503,21.001957],[-156.666637,21.002131],[-156.666685,21.002222],[-156.666673,21.00242],[-156.666608,21.002546],[-156.666585,21.002568],[-156.666585,21.002685],[-156.666767,21.002855],[-156.66679,21.002986],[-156.666849,21.003082],[-156.667019,21.003256],[-156.667108,21.003361],[-156.667142,21.003452],[-156.667148,21.003668],[-156.667095,21.003717],[-156.667048,21.003721],[-156.667001,21.003703],[-156.666931,21.003638],[-156.666896,21.003647],[-156.666867,21.003701],[-156.666849,21.003994],[-156.666797,21.004183],[-156.666685,21.004348],[-156.666632,21.00442],[-156.666661,21.004533],[-156.666679,21.004574],[-156.666673,21.004651],[-156.666603,21.004672],[-156.666439,21.00467],[-156.666228,21.004726],[-156.666088,21.004787],[-156.666064,21.004841],[-156.666076,21.004927],[-156.666151,21.005023],[-156.666463,21.005321],[-156.666469,21.005348],[-156.666538,21.005421],[-156.666616,21.005562],[-156.666692,21.005771],[-156.666692,21.005839],[-156.666598,21.005846],[-156.666556,21.0059],[-156.666556,21.005972],[-156.666627,21.00609],[-156.666814,21.006332],[-156.666949,21.006614],[-156.66695,21.006741],[-156.66689,21.006767],[-156.666733,21.006702],[-156.666622,21.006641],[-156.666575,21.006654],[-156.666492,21.006712],[-156.666421,21.006702],[-156.666381,21.00667],[-156.666328,21.006448],[-156.666228,21.006306],[-156.666094,21.006192],[-156.665794,21.005989],[-156.665642,21.005883],[-156.665601,21.005887],[-156.665548,21.005927],[-156.665507,21.00598],[-156.665419,21.006024],[-156.665343,21.006014],[-156.665272,21.005986],[-156.665197,21.005899],[-156.66512,21.005736],[-156.664956,21.00553],[-156.664774,21.005383],[-156.664552,21.005249],[-156.66447,21.005158],[-156.664341,21.004871],[-156.664188,21.004648],[-156.6641,21.004579],[-156.664024,21.004587],[-156.663947,21.004604],[-156.663714,21.0047],[-156.663666,21.004695],[-156.663637,21.004668],[-156.663678,21.004524],[-156.663607,21.004441],[-156.66359,21.004297],[-156.663502,21.004192],[-156.663408,21.004186],[-156.663368,21.004235],[-156.66332,21.004365],[-156.663291,21.004392],[-156.663233,21.004382],[-156.663157,21.004336],[-156.662945,21.004116],[-156.66284,21.003984],[-156.662769,21.003933],[-156.662676,21.003964],[-156.662494,21.004137],[-156.662365,21.004153],[-156.66226,21.004111],[-156.662148,21.004114],[-156.66209,21.004154],[-156.662013,21.004243],[-156.661837,21.004254],[-156.661808,21.004308],[-156.661772,21.004538],[-156.66172,21.004555],[-156.661644,21.004437],[-156.661527,21.004327],[-156.661369,21.004225],[-156.661181,21.004178],[-156.660982,21.004188],[-156.660343,21.004225],[-156.659844,21.004326],[-156.659393,21.004325],[-156.659141,21.004398],[-156.65896,21.00445],[-156.658168,21.00447],[-156.657957,21.004467],[-156.657811,21.004506],[-156.657763,21.004568],[-156.657717,21.004839],[-156.657617,21.005018],[-156.657529,21.005102],[-156.657423,21.00516],[-156.657329,21.005163],[-156.657265,21.005117],[-156.657224,21.005053],[-156.657148,21.004984],[-156.65706,21.004992],[-156.657013,21.005046],[-156.656972,21.005117],[-156.656914,21.005157],[-156.656855,21.005116],[-156.65679,21.005056],[-156.656714,21.005064],[-156.656638,21.005117],[-156.65655,21.005238],[-156.656368,21.005267],[-156.656339,21.005316],[-156.656345,21.005538],[-156.656404,21.005791],[-156.656421,21.005972],[-156.656421,21.006681],[-156.656462,21.006835],[-156.656492,21.007057],[-156.656509,21.007116],[-156.656522,21.007703],[-156.656586,21.007817],[-156.656884,21.008128],[-156.656956,21.008255],[-156.656984,21.008364],[-156.656973,21.008517],[-156.656896,21.008602],[-156.656674,21.008662],[-156.656597,21.008652],[-156.656522,21.008628],[-156.656492,21.008601],[-156.656445,21.008474],[-156.656433,21.008311],[-156.656374,21.008139],[-156.656222,21.007875],[-156.656146,21.00782],[-156.656058,21.007818],[-156.656063,21.007877],[-156.656116,21.007968],[-156.656117,21.008086],[-156.656058,21.008143],[-156.655988,21.008179],[-156.655912,21.008119],[-156.655894,21.008042],[-156.655847,21.007964],[-156.655848,21.007847],[-156.655759,21.00776],[-156.655741,21.007561],[-156.655665,21.00751],[-156.655636,21.007451],[-156.655624,21.007298],[-156.655595,21.007243],[-156.655583,21.007098],[-156.65556,21.006949],[-156.655518,21.006917],[-156.65546,21.00693],[-156.655413,21.007006],[-156.655336,21.007005],[-156.655249,21.006922],[-156.65519,21.006831],[-156.65515,21.006654],[-156.655144,21.006176],[-156.655114,21.006071],[-156.65498,21.005903],[-156.654833,21.005824],[-156.654457,21.005706],[-156.654188,21.005585],[-156.654076,21.005497],[-156.653989,21.005383],[-156.653959,21.005297],[-156.653948,21.00485],[-156.653837,21.004744],[-156.653795,21.004721],[-156.653572,21.004655],[-156.65312,21.004644],[-156.652564,21.004709],[-156.651908,21.004871],[-156.651234,21.00506],[-156.650307,21.005287],[-156.650003,21.005391],[-156.649756,21.005559],[-156.649633,21.005666],[-156.649604,21.005828],[-156.649516,21.005904],[-156.649323,21.005982],[-156.649212,21.006075],[-156.649111,21.006191],[-156.649047,21.006317],[-156.648971,21.006542],[-156.64893,21.006826],[-156.648883,21.006911],[-156.648707,21.007093],[-156.648602,21.007191],[-156.648572,21.00729],[-156.648408,21.007428],[-156.648133,21.007582],[-156.64791,21.00771],[-156.64781,21.007826],[-156.647698,21.008064],[-156.64754,21.008256],[-156.647271,21.008514],[-156.647153,21.008724],[-156.647119,21.008787],[-156.647043,21.008781],[-156.646866,21.008707],[-156.646715,21.008709],[-156.646521,21.00881],[-156.646432,21.008922],[-156.646398,21.009003],[-156.646386,21.00931],[-156.646368,21.009409],[-156.646327,21.009494],[-156.646075,21.009536],[-156.645999,21.009598],[-156.645999,21.009796],[-156.645981,21.009868],[-156.645882,21.010021],[-156.645876,21.010201],[-156.645894,21.010251],[-156.645994,21.010302],[-156.646192,21.010368],[-156.64631,21.010401],[-156.646597,21.010681],[-156.646702,21.010808],[-156.646744,21.011003],[-156.646773,21.011044],[-156.646779,21.011157],[-156.646749,21.011197],[-156.646597,21.011227],[-156.646374,21.011179],[-156.64624,21.011181],[-156.646192,21.01123],[-156.646181,21.011451],[-156.646163,21.011492],[-156.646087,21.011536],[-156.645847,21.011316],[-156.6458,21.011297],[-156.645595,21.011425],[-156.645325,21.01158],[-156.645266,21.011705],[-156.645267,21.011904],[-156.645278,21.012085],[-156.645284,21.012211],[-156.64522,21.012228],[-156.645149,21.012182],[-156.64485,21.011889],[-156.644786,21.011748],[-156.644768,21.011612],[-156.644745,21.011594],[-156.64437,21.011453],[-156.644182,21.011442],[-156.644036,21.011453],[-156.643913,21.01133],[-156.643801,21.011283],[-156.643737,21.011269],[-156.643708,21.011286],[-156.643672,21.01134],[-156.64366,21.011412],[-156.643707,21.011476],[-156.643725,21.011566],[-156.643695,21.011625],[-156.643696,21.011665],[-156.643707,21.011765],[-156.64366,21.011787],[-156.64362,21.011768],[-156.643531,21.011677],[-156.643484,21.011595],[-156.643408,21.011512],[-156.643372,21.011426],[-156.643321,21.011358],[-156.643092,21.011242],[-156.642804,21.01117],[-156.642611,21.011199],[-156.642318,21.011222],[-156.641861,21.011441],[-156.641714,21.011575],[-156.641655,21.011682],[-156.641579,21.011893],[-156.641532,21.012127],[-156.641479,21.012258],[-156.641386,21.012536],[-156.641386,21.012947],[-156.641345,21.013005],[-156.641105,21.013133],[-156.641046,21.013195],[-156.641046,21.013245],[-156.641204,21.013356],[-156.641286,21.013456],[-156.64131,21.013583],[-156.641327,21.01361],[-156.64145,21.01368],[-156.641509,21.013735],[-156.641521,21.013848],[-156.641539,21.01392],[-156.641626,21.014016],[-156.641627,21.014057],[-156.641527,21.014073],[-156.641462,21.014045],[-156.641345,21.01403],[-156.641286,21.014029],[-156.641192,21.014001],[-156.641104,21.013873],[-156.640981,21.013605],[-156.64083,21.01345],[-156.640776,21.013422],[-156.640548,21.01341],[-156.640249,21.013469],[-156.639949,21.013311],[-156.63968,21.013262],[-156.639323,21.013257],[-156.639153,21.013291],[-156.639024,21.01323],[-156.638853,21.013088],[-156.638812,21.013065],[-156.638625,21.013004],[-156.638455,21.013006],[-156.638185,21.013138],[-156.637945,21.013342],[-156.637851,21.013512],[-156.637752,21.013768],[-156.637752,21.014147],[-156.63781,21.014428],[-156.637828,21.014541],[-156.637887,21.014696],[-156.637974,21.014877],[-156.638179,21.015187],[-156.638262,21.015301],[-156.638285,21.015342],[-156.638484,21.015625],[-156.638637,21.015921],[-156.638783,21.016139],[-156.639036,21.016378],[-156.639305,21.016512],[-156.639727,21.016708],[-156.639979,21.016815],[-156.64009,21.016916],[-156.640101,21.017029],[-156.640055,21.017141],[-156.640008,21.017222],[-156.639996,21.017298],[-156.640032,21.01738],[-156.64012,21.017747],[-156.640196,21.017951],[-156.640324,21.018066],[-156.640594,21.018169],[-156.640641,21.018206],[-156.640641,21.018265],[-156.640624,21.018287],[-156.640612,21.018336],[-156.640841,21.018493],[-156.641028,21.018631],[-156.641134,21.018741],[-156.641245,21.018955],[-156.641316,21.019168],[-156.641321,21.019498],[-156.641304,21.019619],[-156.641269,21.019714],[-156.641157,21.019838],[-156.640987,21.019985],[-156.640976,21.020066],[-156.641016,21.020166],[-156.641063,21.020248],[-156.641151,21.020457],[-156.641239,21.020711],[-156.641262,21.020896],[-156.641263,21.021172],[-156.641269,21.021375],[-156.641263,21.021596],[-156.641127,21.02182],[-156.641128,21.021992],[-156.641286,21.022206],[-156.641286,21.022292],[-156.641215,21.022354],[-156.64111,21.022457],[-156.641098,21.022529],[-156.641063,21.022542],[-156.64094,21.022481],[-156.6408,21.022484],[-156.640753,21.022555],[-156.640752,21.022664],[-156.640841,21.022769],[-156.641063,21.02288],[-156.641098,21.023061],[-156.641152,21.023116],[-156.641157,21.023166],[-156.641098,21.023224],[-156.641093,21.023287],[-156.641128,21.023342],[-156.641186,21.023455],[-156.641245,21.023709],[-156.641245,21.023917],[-156.641228,21.023962],[-156.641158,21.024056],[-156.641051,21.02409],[-156.640988,21.024071],[-156.640906,21.024016],[-156.640869,21.023948],[-156.640853,21.023857],[-156.640823,21.023794],[-156.640765,21.02372],[-156.640706,21.023697],[-156.640553,21.023781],[-156.640406,21.02381],[-156.640096,21.023811],[-156.640078,21.023873],[-156.640108,21.023946],[-156.640119,21.024091],[-156.640044,21.024162],[-156.640002,21.024216],[-156.63999,21.024288],[-156.640079,21.024442],[-156.640091,21.024542],[-156.640032,21.024564],[-156.639973,21.024558],[-156.639879,21.024471],[-156.639733,21.024415],[-156.639685,21.024414],[-156.63961,21.024486],[-156.639569,21.024553],[-156.63954,21.024796],[-156.639346,21.025033],[-156.639258,21.025113],[-156.639176,21.025148],[-156.63907,21.025146],[-156.639,21.025087],[-156.638953,21.024978],[-156.638942,21.024752],[-156.638924,21.024733],[-156.638742,21.024713],[-156.638643,21.024653],[-156.638554,21.024638],[-156.638449,21.024668],[-156.638384,21.024649],[-156.638261,21.024525],[-156.638068,21.02436],[-156.637933,21.024286],[-156.637758,21.024216],[-156.637546,21.024123],[-156.637335,21.024115],[-156.637259,21.024132],[-156.636989,21.024241],[-156.636854,21.024253],[-156.636614,21.024322],[-156.636561,21.024371],[-156.636543,21.02461],[-156.636467,21.024686],[-156.636186,21.024704],[-156.636098,21.024771],[-156.636062,21.024838],[-156.635911,21.024985],[-156.635647,21.025135],[-156.635476,21.025173],[-156.635389,21.025172],[-156.635266,21.025161],[-156.635154,21.025245],[-156.634967,21.025315],[-156.634627,21.02536],[-156.634492,21.025331],[-156.63421,21.0252],[-156.6341,21.02519],[-156.633982,21.025274],[-156.633865,21.025304],[-156.633847,21.02529],[-156.63383,21.025218],[-156.633759,21.025149],[-156.633607,21.02512],[-156.633401,21.025117],[-156.633173,21.025191],[-156.632962,21.0253],[-156.632857,21.025326],[-156.632833,21.025303],[-156.632832,21.025276],[-156.632885,21.025191],[-156.632892,21.025092],[-156.632798,21.025018],[-156.632721,21.024927],[-156.632722,21.024742],[-156.632699,21.024687],[-156.632616,21.024609],[-156.63244,21.024557],[-156.632229,21.024554],[-156.632054,21.024638],[-156.631971,21.024609],[-156.6319,21.024599],[-156.631836,21.02463],[-156.631766,21.024688],[-156.631754,21.024791],[-156.631778,21.024828],[-156.631783,21.024936],[-156.631719,21.024963],[-156.631661,21.024935],[-156.631602,21.024871],[-156.63159,21.024586],[-156.631538,21.024513],[-156.631484,21.024472],[-156.631332,21.024406],[-156.63118,21.024409],[-156.631021,21.024483],[-156.630916,21.024586],[-156.630839,21.024729],[-156.63078,21.024954],[-156.630599,21.025037],[-156.630494,21.025135],[-156.630447,21.025243],[-156.630429,21.025432],[-156.630376,21.02544],[-156.630317,21.025345],[-156.630283,21.025191],[-156.630265,21.025168],[-156.630189,21.02495],[-156.630165,21.024864],[-156.630136,21.024801],[-156.63013,21.024557],[-156.630089,21.024403],[-156.630072,21.024122],[-156.63003,21.024022],[-156.629955,21.023927],[-156.629837,21.023839],[-156.629562,21.023704],[-156.62928,21.023646],[-156.629082,21.023589],[-156.629069,21.023558],[-156.628975,21.02347],[-156.628753,21.023395],[-156.628588,21.023316],[-156.628512,21.023238],[-156.628395,21.023196],[-156.628366,21.023114],[-156.628272,21.023014],[-156.62799,21.022883],[-156.627962,21.022842],[-156.627874,21.022733],[-156.62781,21.022678],[-156.627633,21.022589],[-156.627211,21.02252],[-156.626965,21.022535]]]]}}]}